G21         ; Set units to mm
G90         ; Absolute positioning
G1 Z2.54 F2540      ; Move to clearance level

;
; Operation:    0
; Name:         
; Type:         Outside
; Paths:        6
; Direction:    Conventional
; Cut Depth:    3.175
; Pass Depth:   3.175
; Plunge rate:  127
; Cut rate:     1016
;

; Path 0
; Rapid to initial position
G1 X199.4675 Y-17.5699 F2540
G1 Z0.0000
; plunge
G1 Z-3.1750 F127
; cut
G1 X199.1886 Y-17.5699 F1016
G1 X198.9097 Y-17.5710
G1 X198.6310 Y-17.5730
G1 X198.3547 Y-17.5758
G1 X197.9392 Y-17.5824
G1 X197.6628 Y-17.5877
G1 X197.3875 Y-17.5943
G1 X197.1139 Y-17.6017
G1 X196.7088 Y-17.6146
G1 X196.5693 Y-17.6197
G1 X196.1713 Y-17.6357
G1 X195.9046 Y-17.6477
G1 X195.7695 Y-17.6545
G1 X195.3829 Y-17.6748
G1 X194.9966 Y-17.6977
G1 X194.6168 Y-17.7231
G1 X194.3666 Y-17.7411
G1 X194.0001 Y-17.7706
G1 X193.7598 Y-17.7912
G1 X193.5213 Y-17.8133
G1 X193.2879 Y-17.8361
G1 X193.0606 Y-17.8600
G1 X192.9430 Y-17.8730
G1 X192.7248 Y-17.8981
G1 X192.5063 Y-17.9250
G1 X192.2922 Y-17.9530
G1 X192.1820 Y-17.9682
G1 X191.9818 Y-17.9969
G1 X191.8721 Y-18.0137
G1 X191.6798 Y-18.0442
G1 X191.4848 Y-18.0772
G1 X191.3842 Y-18.0950
G1 X191.1878 Y-18.1310
G1 X190.9958 Y-18.1668
G1 X190.8018 Y-18.2039
G1 X190.6102 Y-18.2410
G1 X190.4185 Y-18.2789
G1 X190.2257 Y-18.3177
G1 X190.0349 Y-18.3568
G1 X189.8444 Y-18.3965
G1 X189.6521 Y-18.4371
G1 X189.2732 Y-18.5199
G1 X188.8950 Y-18.6047
G1 X188.7022 Y-18.6489
G1 X188.5114 Y-18.6939
G1 X188.3237 Y-18.7386
G1 X188.1360 Y-18.7838
G1 X187.9465 Y-18.8305
G1 X187.5747 Y-18.9238
G1 X187.3837 Y-18.9728
G1 X187.1957 Y-19.0218
G1 X187.0098 Y-19.0711
G1 X186.8241 Y-19.1209
G1 X186.4538 Y-19.2225
G1 X186.2666 Y-19.2745
G1 X186.0801 Y-19.3276
G1 X185.8940 Y-19.3812
G1 X185.7101 Y-19.4348
G1 X185.5264 Y-19.4889
G1 X185.3413 Y-19.5445
G1 X185.1576 Y-19.6002
G1 X184.7931 Y-19.7132
G1 X184.6064 Y-19.7721
G1 X184.4246 Y-19.8300
G1 X184.2409 Y-19.8897
G1 X184.0596 Y-19.9492
G1 X183.8785 Y-20.0088
G1 X183.5175 Y-20.1308
G1 X183.3331 Y-20.1943
G1 X183.1528 Y-20.2570
G1 X182.7944 Y-20.3840
G1 X182.6108 Y-20.4500
G1 X182.4319 Y-20.5153
G1 X182.2516 Y-20.5819
G1 X182.0733 Y-20.6484
G1 X181.8932 Y-20.7162
G1 X181.7157 Y-20.7841
G1 X181.5361 Y-20.8534
G1 X181.3590 Y-20.9225
G1 X181.1820 Y-20.9921
G1 X181.0034 Y-21.0630
G1 X180.8251 Y-21.1351
G1 X180.4751 Y-21.2781
G1 X180.2955 Y-21.3525
G1 X179.9453 Y-21.5006
G1 X179.7685 Y-21.5763
G1 X179.5915 Y-21.6530
G1 X179.4162 Y-21.7297
G1 X179.2420 Y-21.8067
G1 X179.0675 Y-21.8844
G1 X178.8930 Y-21.9629
G1 X178.7180 Y-22.0429
G1 X178.3740 Y-22.2014
G1 X178.1978 Y-22.2839
G1 X178.0238 Y-22.3662
G1 X177.8518 Y-22.4483
G1 X177.5089 Y-22.6146
G1 X177.3357 Y-22.6995
G1 X177.1630 Y-22.7851
G1 X176.9908 Y-22.8714
G1 X176.8201 Y-22.9573
G1 X176.4807 Y-23.1310
G1 X176.3067 Y-23.2212
G1 X176.1373 Y-23.3098
G1 X175.9671 Y-23.3995
G1 X175.6296 Y-23.5803
G1 X175.4591 Y-23.6725
G1 X175.2884 Y-23.7658
G1 X175.1198 Y-23.8590
G1 X174.9519 Y-23.9522
G1 X174.7845 Y-24.0462
G1 X174.6156 Y-24.1414
G1 X174.4477 Y-24.2372
G1 X174.2801 Y-24.3337
G1 X174.1119 Y-24.4312
G1 X173.9448 Y-24.5290
G1 X173.7787 Y-24.6271
G1 X173.6126 Y-24.7254
G1 X173.4454 Y-24.8255
G1 X173.2785 Y-24.9265
G1 X173.1134 Y-25.0271
G1 X172.7848 Y-25.2296
G1 X172.6171 Y-25.3340
G1 X172.4528 Y-25.4371
G1 X172.2872 Y-25.5420
G1 X172.1218 Y-25.6476
G1 X171.9585 Y-25.7528
G1 X171.7944 Y-25.8590
G1 X171.6303 Y-25.9662
G1 X171.4670 Y-26.0736
G1 X171.3045 Y-26.1813
G1 X171.1404 Y-26.2910
G1 X170.9776 Y-26.4005
G1 X170.8147 Y-26.5110
G1 X170.6524 Y-26.6220
G1 X170.4909 Y-26.7330
G1 X170.3281 Y-26.8458
G1 X170.1663 Y-26.9588
G1 X170.0047 Y-27.0726
G1 X169.8434 Y-27.1869
G1 X169.6829 Y-27.3012
G1 X169.5214 Y-27.4175
G1 X169.3608 Y-27.5339
G1 X169.0428 Y-27.7663
G1 X168.8800 Y-27.8867
G1 X168.7987 Y-27.9471
G1 X168.6336 Y-28.0723
G1 X168.4617 Y-28.2047
G1 X168.2864 Y-28.3423
G1 X168.1089 Y-28.4838
G1 X167.9260 Y-28.6319
G1 X167.7424 Y-28.7825
G1 X167.4614 Y-29.0165
G1 X167.1716 Y-29.2618
G1 X166.7769 Y-29.6027
G1 X166.4724 Y-29.8699
G1 X166.1645 Y-30.1434
G1 X165.9550 Y-30.3314
G1 X165.6397 Y-30.6174
G1 X165.4264 Y-30.8125
G1 X165.2120 Y-31.0101
G1 X164.8889 Y-31.3101
G1 X164.6700 Y-31.5150
G1 X164.4513 Y-31.7213
G1 X164.2318 Y-31.9298
G1 X163.9021 Y-32.2450
G1 X163.4609 Y-32.6713
G1 X163.1269 Y-32.9974
G1 X162.7950 Y-33.3240
G1 X162.4637 Y-33.6527
G1 X162.2422 Y-33.8745
G1 X161.9136 Y-34.2052
G1 X161.5867 Y-34.5371
G1 X161.2621 Y-34.8694
G1 X161.1521 Y-34.9827
G1 X160.8343 Y-35.3121
G1 X160.5183 Y-35.6418
G1 X160.2057 Y-35.9717
G1 X160.0002 Y-36.1902
G1 X159.6977 Y-36.5145
G1 X159.4970 Y-36.7314
G1 X159.2057 Y-37.0487
G1 X159.0124 Y-37.2613
G1 X158.7315 Y-37.5737
G1 X158.5471 Y-37.7805
G1 X158.3667 Y-37.9844
G1 X158.1899 Y-38.1861
G1 X158.0177 Y-38.3842
G1 X157.8488 Y-38.5808
G1 X157.6835 Y-38.7754
G1 X157.5237 Y-38.9654
G1 X157.3675 Y-39.1533
G1 X157.2163 Y-39.3370
G1 X156.9989 Y-39.6062
G1 X156.8580 Y-39.7840
G1 X156.7858 Y-39.8760
G1 X156.6578 Y-40.0416
G1 X156.5300 Y-40.2095
G1 X156.3850 Y-40.4045
G1 X156.1468 Y-40.7281
G1 X155.9875 Y-40.9468
G1 X155.7520 Y-41.2730
G1 X155.5179 Y-41.6016
G1 X155.3614 Y-41.8229
G1 X155.1308 Y-42.1531
G1 X154.9768 Y-42.3753
G1 X154.8234 Y-42.5988
G1 X154.5974 Y-42.9311
G1 X154.4455 Y-43.1569
G1 X154.2217 Y-43.4924
G1 X154.0723 Y-43.7187
G1 X153.9240 Y-43.9453
G1 X153.7045 Y-44.2839
G1 X153.5575 Y-44.5135
G1 X153.3413 Y-44.8536
G1 X153.1960 Y-45.0845
G1 X152.9824 Y-45.4282
G1 X152.7701 Y-45.7733
G1 X152.4894 Y-46.2364
G1 X152.2804 Y-46.5866
G1 X152.0736 Y-46.9369
G1 X151.9359 Y-47.1729
G1 X151.7332 Y-47.5234
G1 X151.5976 Y-47.7606
G1 X151.3977 Y-48.1145
G1 X151.1991 Y-48.4698
G1 X151.0020 Y-48.8267
G1 X150.8067 Y-49.1853
G1 X150.6136 Y-49.5442
G1 X150.4221 Y-49.9049
G1 X150.2946 Y-50.1480
G1 X150.1071 Y-50.5084
G1 X149.9817 Y-50.7530
G1 X149.7973 Y-51.1155
G1 X149.6743 Y-51.3603
G1 X149.4927 Y-51.7258
G1 X149.3718 Y-51.9717
G1 X149.1935 Y-52.3382
G1 X149.0746 Y-52.5859
G1 X148.8417 Y-53.0769
G1 X148.6680 Y-53.4495
G1 X148.5529 Y-53.6992
G1 X148.3835 Y-54.0705
G1 X148.2705 Y-54.3220
G1 X148.1044 Y-54.6948
G1 X147.9393 Y-55.0708
G1 X147.8295 Y-55.3235
G1 X147.6157 Y-55.8244
G1 X147.5082 Y-56.0789
G1 X147.2992 Y-56.5833
G1 X147.1945 Y-56.8389
G1 X146.9906 Y-57.3453
G1 X146.8885 Y-57.6031
G1 X146.7884 Y-57.8584
G1 X146.6400 Y-58.2404
G1 X146.4455 Y-58.7522
G1 X146.3479 Y-59.0128
G1 X146.2060 Y-59.3966
G1 X146.0650 Y-59.7845
G1 X146.0172 Y-59.9176
G1 X145.8354 Y-60.4302
G1 X145.7437 Y-60.6933
G1 X145.6101 Y-61.0814
G1 X145.5214 Y-61.3428
G1 X145.4340 Y-61.6041
G1 X145.3050 Y-61.9948
G1 X145.1775 Y-62.3877
G1 X145.0523 Y-62.7804
G1 X144.9695 Y-63.0446
G1 X144.8079 Y-63.5691
G1 X144.6886 Y-63.9653
G1 X144.5331 Y-64.4926
G1 X144.4183 Y-64.8919
G1 X144.3060 Y-65.2889
G1 X144.1595 Y-65.8200
G1 X144.0518 Y-66.2203
G1 X143.9809 Y-66.4888
G1 X143.9111 Y-66.7563
G1 X143.8427 Y-67.0227
G1 X143.7416 Y-67.4223
G1 X143.6748 Y-67.6923
G1 X143.5776 Y-68.0933
G1 X143.4508 Y-68.6293
G1 X143.3576 Y-69.0347
G1 X143.2669 Y-69.4385
G1 X143.1783 Y-69.8444
G1 X143.0919 Y-70.2483
G1 X143.0073 Y-70.6552
G1 X142.8986 Y-71.1954
G1 X142.8450 Y-71.4708
G1 X142.7676 Y-71.8749
G1 X142.6924 Y-72.2798
G1 X142.6444 Y-72.5447
G1 X142.5743 Y-72.9394
G1 X142.5059 Y-73.3349
G1 X142.4181 Y-73.8614
G1 X142.3538 Y-74.2587
G1 X142.2717 Y-74.7857
G1 X142.2118 Y-75.1830
G1 X142.1732 Y-75.4489
G1 X142.1168 Y-75.8439
G1 X142.0625 Y-76.2396
G1 X142.0269 Y-76.5061
G1 X141.9756 Y-76.9003
G1 X141.9261 Y-77.2975
G1 X141.8786 Y-77.6938
G1 X141.8326 Y-78.0903
G1 X141.7747 Y-78.6171
G1 X141.7330 Y-79.0156
G1 X141.6807 Y-79.5431
G1 X141.6555 Y-79.8101
G1 X141.6200 Y-80.2043
G1 X141.5969 Y-80.4708
G1 X141.5641 Y-80.8652
G1 X141.5433 Y-81.1317
G1 X141.5138 Y-81.5259
G1 X141.4948 Y-81.7923
G1 X141.4683 Y-82.1863
G1 X141.4437 Y-82.5833
G1 X141.4209 Y-82.9782
G1 X141.3998 Y-83.3752
G1 X141.3746 Y-83.9018
G1 X141.3525 Y-84.4288
G1 X141.3383 Y-84.8261
G1 X141.3259 Y-85.2216
G1 X141.3121 Y-85.7474
G1 X141.3015 Y-86.2739
G1 X141.2959 Y-86.6706
G1 X141.2918 Y-87.0654
G1 X141.2898 Y-87.4598
G1 X141.2895 Y-87.8543
G1 X141.2921 Y-88.3790
G1 X141.2977 Y-88.9041
G1 X141.3068 Y-89.4293
G1 X141.3190 Y-89.9536
G1 X141.3304 Y-90.3486
G1 X141.3388 Y-90.6115
G1 X141.3581 Y-91.1324
G1 X141.3751 Y-91.5266
G1 X141.3934 Y-91.9178
G1 X141.4069 Y-92.1814
G1 X141.4282 Y-92.5711
G1 X141.4516 Y-92.9625
G1 X141.4683 Y-93.2249
G1 X141.4945 Y-93.6147
G1 X141.5133 Y-93.8766
G1 X141.5423 Y-94.2652
G1 X141.5842 Y-94.7844
G1 X141.6291 Y-95.3038
G1 X141.6776 Y-95.8233
G1 X141.7160 Y-96.2132
G1 X141.7561 Y-96.6018
G1 X141.7841 Y-96.8616
G1 X141.8415 Y-97.3760
G1 X141.8872 Y-97.7654
G1 X141.9342 Y-98.1514
G1 X141.9997 Y-98.6660
G1 X142.0515 Y-99.0539
G1 X142.1044 Y-99.4387
G1 X142.1592 Y-99.8243
G1 X142.2161 Y-100.2091
G1 X142.2745 Y-100.5937
G1 X142.3350 Y-100.9780
G1 X142.3967 Y-101.3605
G1 X142.4821 Y-101.8705
G1 X142.5705 Y-102.3803
G1 X142.6167 Y-102.6381
G1 X142.7091 Y-103.1433
G1 X142.8057 Y-103.6508
G1 X142.8557 Y-103.9076
G1 X142.9560 Y-104.4108
G1 X143.0084 Y-104.6668
G1 X143.1135 Y-105.1684
G1 X143.1950 Y-105.5477
G1 X143.2781 Y-105.9256
G1 X143.3350 Y-106.1783
G1 X143.4206 Y-106.5533
G1 X143.4790 Y-106.8052
G1 X143.5677 Y-107.1796
G1 X143.6583 Y-107.5548
G1 X143.7508 Y-107.9297
G1 X143.8765 Y-108.4265
G1 X143.9728 Y-108.8004
G1 X144.1041 Y-109.2965
G1 X144.2049 Y-109.6691
G1 X144.3413 Y-110.1628
G1 X144.4808 Y-110.6556
G1 X144.6235 Y-111.1481
G1 X144.7335 Y-111.5187
G1 X144.8438 Y-111.8850
G1 X144.9192 Y-112.1319
G1 X144.9951 Y-112.3767
G1 X145.0716 Y-112.6208
G1 X145.2255 Y-113.1052
G1 X145.3053 Y-113.3516
G1 X145.4241 Y-113.7143
G1 X145.5450 Y-114.0775
G1 X145.6680 Y-114.4407
G1 X145.7927 Y-114.8034
G1 X145.9189 Y-115.1641
G1 X146.0470 Y-115.5253
G1 X146.1762 Y-115.8845
G1 X146.3081 Y-116.2441
G1 X146.4854 Y-116.7204
G1 X146.6665 Y-117.1971
G1 X146.7587 Y-117.4366
G1 X146.9431 Y-117.9086
G1 X147.0381 Y-118.1478
G1 X147.1325 Y-118.3838
G1 X147.3228 Y-118.8524
G1 X147.5174 Y-119.3223
G1 X147.6657 Y-119.6749
G1 X147.8648 Y-120.1410
G1 X148.0170 Y-120.4915
G1 X148.2214 Y-120.9545
G1 X148.3774 Y-121.3033
G1 X148.4831 Y-121.5360
G1 X148.6408 Y-121.8804
G1 X148.8006 Y-122.2248
G1 X148.9088 Y-122.4557
G1 X149.0175 Y-122.6850
G1 X149.1270 Y-122.9142
G1 X149.3459 Y-123.3673
G1 X149.5146 Y-123.7102
G1 X149.6827 Y-124.0490
G1 X149.7975 Y-124.2774
G1 X149.9682 Y-124.6137
G1 X150.0848 Y-124.8407
G1 X150.2585 Y-125.1763
G1 X150.4348 Y-125.5118
G1 X150.6129 Y-125.8471
G1 X150.7924 Y-126.1811
G1 X150.9733 Y-126.5133
G1 X151.0957 Y-126.7361
G1 X151.2794 Y-127.0665
G1 X151.4648 Y-127.3965
G1 X151.6525 Y-127.7262
G1 X151.8412 Y-128.0538
G1 X152.0317 Y-128.3807
G1 X152.1607 Y-128.5999
G1 X152.4168 Y-129.0305
G1 X152.6139 Y-129.3564
G1 X152.8105 Y-129.6784
G1 X153.0751 Y-130.1062
G1 X153.2771 Y-130.4277
G1 X153.4130 Y-130.6421
G1 X153.6154 Y-130.9586
G1 X153.8209 Y-131.2763
G1 X154.0279 Y-131.5926
G1 X154.2362 Y-131.9073
G1 X154.3774 Y-132.1181
G1 X154.5880 Y-132.4303
G1 X154.8008 Y-132.7422
G1 X155.0152 Y-133.0528
G1 X155.1600 Y-133.2606
G1 X155.3050 Y-133.4668
G1 X155.5946 Y-133.8750
G1 X155.7429 Y-134.0815
G1 X155.8905 Y-134.2857
G1 X156.1125 Y-134.5895
G1 X156.2626 Y-134.7932
G1 X156.4739 Y-135.0769
G1 X156.6060 Y-135.2509
G1 X156.6784 Y-135.3444
G1 X156.8135 Y-135.5181
G1 X156.8882 Y-135.6124
G1 X157.0327 Y-135.7937
G1 X157.1104 Y-135.8897
G1 X157.2613 Y-136.0752
G1 X157.4980 Y-136.3617
G1 X157.6647 Y-136.5601
G1 X157.8333 Y-136.7587
G1 X158.0914 Y-137.0592
G1 X158.2710 Y-137.2657
G1 X158.4528 Y-137.4727
G1 X158.7297 Y-137.7851
G1 X158.9212 Y-137.9990
G1 X159.2105 Y-138.3190
G1 X159.6070 Y-138.7521
G1 X159.8115 Y-138.9731
G1 X160.0162 Y-139.1930
G1 X160.3268 Y-139.5237
G1 X160.6423 Y-139.8565
G1 X161.0693 Y-140.3020
G1 X161.3939 Y-140.6375
G1 X161.6131 Y-140.8623
G1 X161.9400 Y-141.1953
G1 X162.1612 Y-141.4191
G1 X162.6011 Y-141.8600
G1 X162.8242 Y-142.0815
G1 X163.0459 Y-142.3007
G1 X163.3779 Y-142.6263
G1 X163.6004 Y-142.8430
G1 X163.8216 Y-143.0569
G1 X164.1505 Y-143.3731
G1 X164.4800 Y-143.6865
G1 X164.8066 Y-143.9944
G1 X165.1300 Y-144.2961
G1 X165.3454 Y-144.4955
G1 X165.6624 Y-144.7863
G1 X165.9771 Y-145.0713
G1 X166.1851 Y-145.2580
G1 X166.3888 Y-145.4394
G1 X166.5923 Y-145.6187
G1 X166.7924 Y-145.7935
G1 X166.9887 Y-145.9639
G1 X167.1836 Y-146.1305
G1 X167.3763 Y-146.2938
G1 X167.5643 Y-146.4513
G1 X167.7510 Y-146.6060
G1 X167.9329 Y-146.7543
G1 X168.1122 Y-146.8989
G1 X168.2885 Y-147.0386
G1 X168.4609 Y-147.1732
G1 X168.6301 Y-147.3027
G1 X168.7195 Y-147.3700
G1 X168.8760 Y-147.4864
G1 X169.0654 Y-147.6251
G1 X169.2486 Y-147.7579
G1 X169.4304 Y-147.8890
G1 X169.6151 Y-148.0208
G1 X169.7985 Y-148.1511
G1 X169.9826 Y-148.2806
G1 X170.1665 Y-148.4089
G1 X170.3507 Y-148.5367
G1 X170.5341 Y-148.6629
G1 X170.7208 Y-148.7902
G1 X170.9047 Y-148.9146
G1 X171.2727 Y-149.1610
G1 X171.4604 Y-149.2852
G1 X171.6474 Y-149.4076
G1 X171.8320 Y-149.5275
G1 X172.0195 Y-149.6484
G1 X172.2062 Y-149.7675
G1 X172.3913 Y-149.8851
G1 X172.5783 Y-150.0030
G1 X172.9509 Y-150.2341
G1 X173.1409 Y-150.3507
G1 X173.3286 Y-150.4648
G1 X173.5168 Y-150.5781
G1 X173.7045 Y-150.6903
G1 X173.8927 Y-150.8018
G1 X174.0812 Y-150.9123
G1 X174.2702 Y-151.0223
G1 X174.4589 Y-151.1313
G1 X174.6494 Y-151.2400
G1 X174.8373 Y-151.3464
G1 X175.0286 Y-151.4536
G1 X175.2168 Y-151.5582
G1 X175.4081 Y-151.6637
G1 X175.5983 Y-151.7673
G1 X175.7876 Y-151.8699
G1 X175.9796 Y-151.9725
G1 X176.1703 Y-152.0736
G1 X176.3611 Y-152.1739
G1 X176.5513 Y-152.2730
G1 X176.7441 Y-152.3723
G1 X177.1251 Y-152.5656
G1 X177.3199 Y-152.6631
G1 X177.5120 Y-152.7584
G1 X177.7060 Y-152.8531
G1 X177.8970 Y-152.9461
G1 X178.0921 Y-153.0396
G1 X178.2836 Y-153.1305
G1 X178.4784 Y-153.2219
G1 X178.6707 Y-153.3116
G1 X178.8643 Y-153.4008
G1 X179.0598 Y-153.4897
G1 X179.2539 Y-153.5770
G1 X179.4472 Y-153.6634
G1 X179.6440 Y-153.7500
G1 X179.8371 Y-153.8341
G1 X180.0327 Y-153.9184
G1 X180.2285 Y-154.0017
G1 X180.4246 Y-154.0843
G1 X180.6184 Y-154.1650
G1 X180.8147 Y-154.2458
G1 X181.0116 Y-154.3258
G1 X181.4017 Y-154.4815
G1 X181.6021 Y-154.5600
G1 X181.7980 Y-154.6360
G1 X181.9948 Y-154.7114
G1 X182.1934 Y-154.7863
G1 X182.3908 Y-154.8600
G1 X182.5894 Y-154.9329
G1 X182.7853 Y-155.0043
G1 X182.9849 Y-155.0756
G1 X183.1840 Y-155.1460
G1 X183.3829 Y-155.2153
G1 X183.5808 Y-155.2834
G1 X183.7787 Y-155.3510
G1 X183.9783 Y-155.4178
G1 X184.1784 Y-155.4841
G1 X184.3796 Y-155.5493
G1 X184.5772 Y-155.6128
G1 X184.7779 Y-155.6763
G1 X184.9778 Y-155.7386
G1 X185.1797 Y-155.8006
G1 X185.3799 Y-155.8610
G1 X185.5798 Y-155.9207
G1 X185.7804 Y-155.9796
G1 X185.9831 Y-156.0380
G1 X186.1840 Y-156.0949
G1 X186.3865 Y-156.1516
G1 X186.5861 Y-156.2064
G1 X186.7896 Y-156.2616
G1 X186.9933 Y-156.3154
G1 X187.1947 Y-156.3680
G1 X187.3969 Y-156.4198
G1 X187.5993 Y-156.4709
G1 X187.8033 Y-156.5214
G1 X188.0067 Y-156.5707
G1 X188.2092 Y-156.6189
G1 X188.4116 Y-156.6664
G1 X188.6174 Y-156.7137
G1 X188.8223 Y-156.7597
G1 X189.0243 Y-156.8044
G1 X189.2300 Y-156.8488
G1 X189.4337 Y-156.8917
G1 X189.6400 Y-156.9344
G1 X189.8444 Y-156.9758
G1 X190.0491 Y-157.0164
G1 X190.2534 Y-157.0561
G1 X190.4604 Y-157.0952
G1 X190.6656 Y-157.1333
G1 X190.8711 Y-157.1704
G1 X191.0784 Y-157.2070
G1 X191.2841 Y-157.2423
G1 X191.4921 Y-157.2768
G1 X191.6963 Y-157.3103
G1 X191.9044 Y-157.3433
G1 X192.1129 Y-157.3754
G1 X192.3176 Y-157.4061
G1 X192.5262 Y-157.4366
G1 X192.7337 Y-157.4658
G1 X192.9427 Y-157.4945
G1 X193.1497 Y-157.5219
G1 X193.3578 Y-157.5486
G1 X193.5670 Y-157.5745
G1 X193.7751 Y-157.5994
G1 X193.9834 Y-157.6235
G1 X194.1858 Y-157.6459
G1 X194.3870 Y-157.6675
G1 X194.5881 Y-157.6880
G1 X194.7911 Y-157.7078
G1 X194.9945 Y-157.7266
G1 X195.1960 Y-157.7447
G1 X195.3971 Y-157.7617
G1 X195.5983 Y-157.7779
G1 X195.8020 Y-157.7932
G1 X196.0052 Y-157.8077
G1 X196.2046 Y-157.8211
G1 X196.6074 Y-157.8453
G1 X196.8129 Y-157.8562
G1 X197.0146 Y-157.8661
G1 X197.2180 Y-157.8752
G1 X197.4195 Y-157.8834
G1 X197.6211 Y-157.8907
G1 X197.8226 Y-157.8973
G1 X198.0260 Y-157.9029
G1 X198.4271 Y-157.9113
G1 X198.6328 Y-157.9141
G1 X199.0336 Y-157.9174
G1 X199.2394 Y-157.9176
G1 X199.4408 Y-157.9171
G1 X199.6445 Y-157.9156
G1 X199.8457 Y-157.9133
G1 X200.0474 Y-157.9100
G1 X200.2508 Y-157.9060
G1 X200.4499 Y-157.9011
G1 X200.8528 Y-157.8887
G1 X201.0583 Y-157.8811
G1 X201.2594 Y-157.8727
G1 X201.4609 Y-157.8635
G1 X201.6620 Y-157.8534
G1 X201.8652 Y-157.8425
G1 X202.0664 Y-157.8305
G1 X202.2673 Y-157.8181
G1 X202.4705 Y-157.8044
G1 X202.6714 Y-157.7899
G1 X202.8723 Y-157.7746
G1 X203.0733 Y-157.7586
G1 X203.2762 Y-157.7416
G1 X203.4771 Y-157.7238
G1 X203.6778 Y-157.7050
G1 X203.8784 Y-157.6857
G1 X204.0809 Y-157.6652
G1 X204.2815 Y-157.6438
G1 X204.4819 Y-157.6220
G1 X204.6823 Y-157.5991
G1 X204.8825 Y-157.5755
G1 X205.0849 Y-157.5506
G1 X205.2851 Y-157.5252
G1 X205.4852 Y-157.4990
G1 X205.6851 Y-157.4721
G1 X206.0829 Y-157.4157
G1 X206.2869 Y-157.3855
G1 X206.4865 Y-157.3553
G1 X206.6859 Y-157.3240
G1 X207.0829 Y-157.2595
G1 X207.2864 Y-157.2250
G1 X207.4855 Y-157.1904
G1 X207.6844 Y-157.1551
G1 X208.0804 Y-157.0820
G1 X208.4776 Y-157.0055
G1 X208.6800 Y-156.9654
G1 X208.8787 Y-156.9250
G1 X209.0768 Y-156.8839
G1 X209.4713 Y-156.7993
G1 X209.8670 Y-156.7114
G1 X210.0687 Y-156.6652
G1 X210.2660 Y-156.6189
G1 X210.4634 Y-156.5722
G1 X210.6610 Y-156.5245
G1 X210.8596 Y-156.4754
G1 X211.0552 Y-156.4264
G1 X211.2515 Y-156.3766
G1 X211.4507 Y-156.3248
G1 X211.8393 Y-156.2217
G1 X212.0395 Y-156.1671
G1 X212.2358 Y-156.1130
G1 X212.4314 Y-156.0579
G1 X212.6275 Y-156.0020
G1 X212.8228 Y-155.9456
G1 X213.0204 Y-155.8874
G1 X213.2139 Y-155.8298
G1 X213.4088 Y-155.7708
G1 X213.6038 Y-155.7111
G1 X213.9912 Y-155.5897
G1 X214.3798 Y-155.4645
G1 X214.5779 Y-155.3992
G1 X214.7720 Y-155.3345
G1 X214.9640 Y-155.2699
G1 X215.1588 Y-155.2031
G1 X215.3524 Y-155.1361
G1 X215.5439 Y-155.0690
G1 X215.7387 Y-154.9997
G1 X215.9310 Y-154.9303
G1 X216.1238 Y-154.8602
G1 X216.3145 Y-154.7901
G1 X216.5081 Y-154.7177
G1 X216.7006 Y-154.6449
G1 X216.8919 Y-154.5720
G1 X217.0816 Y-154.4985
G1 X217.2744 Y-154.4231
G1 X217.4662 Y-154.3472
G1 X217.6567 Y-154.2710
G1 X217.8456 Y-154.1945
G1 X218.0379 Y-154.1158
G1 X218.2266 Y-154.0378
G1 X218.4179 Y-153.9578
G1 X218.7941 Y-153.7978
G1 X218.9856 Y-153.7150
G1 X219.1758 Y-153.6319
G1 X219.3630 Y-153.5491
G1 X219.5518 Y-153.4650
G1 X219.7412 Y-153.3797
G1 X219.9284 Y-153.2943
G1 X220.1164 Y-153.2080
G1 X220.3036 Y-153.1209
G1 X220.6749 Y-152.9461
G1 X220.8657 Y-152.8544
G1 X221.0516 Y-152.7645
G1 X221.2370 Y-152.6741
G1 X221.4242 Y-152.5816
G1 X221.6084 Y-152.4899
G1 X221.7948 Y-152.3964
G1 X221.9810 Y-152.3017
G1 X222.1644 Y-152.2077
G1 X222.5307 Y-152.0177
G1 X222.7186 Y-151.9184
G1 X222.9018 Y-151.8211
G1 X223.0846 Y-151.7231
G1 X223.2673 Y-151.6243
G1 X223.4527 Y-151.5227
G1 X223.6340 Y-151.4229
G1 X223.8149 Y-151.3223
G1 X223.9985 Y-151.2192
G1 X224.1804 Y-151.1160
G1 X224.3605 Y-151.0132
G1 X224.5421 Y-150.9088
G1 X224.7237 Y-150.8031
G1 X224.9035 Y-150.6977
G1 X225.0849 Y-150.5905
G1 X225.2647 Y-150.4831
G1 X225.4430 Y-150.3759
G1 X225.6226 Y-150.2669
G1 X225.8024 Y-150.1569
G1 X225.9805 Y-150.0469
G1 X226.1596 Y-149.9352
G1 X226.3364 Y-149.8244
G1 X226.5157 Y-149.7109
G1 X226.6925 Y-149.5979
G1 X226.8690 Y-149.4846
G1 X227.0453 Y-149.3703
G1 X227.3963 Y-149.1397
G1 X227.5743 Y-149.0213
G1 X227.7496 Y-148.9037
G1 X227.9233 Y-148.7863
G1 X228.0983 Y-148.6675
G1 X228.2736 Y-148.5471
G1 X228.4476 Y-148.4267
G1 X228.6221 Y-148.3048
G1 X228.7941 Y-148.1839
G1 X228.9670 Y-148.0614
G1 X229.1397 Y-147.9380
G1 X229.3130 Y-147.8133
G1 X229.4834 Y-147.6896
G1 X229.6559 Y-147.5636
G1 X229.8268 Y-147.4373
G1 X229.9965 Y-147.3116
G1 X230.1677 Y-147.1836
G1 X230.3376 Y-147.0553
G1 X230.5075 Y-146.9263
G1 X230.6764 Y-146.7970
G1 X230.8454 Y-146.6667
G1 X231.0148 Y-146.5349
G1 X231.1829 Y-146.4031
G1 X231.3503 Y-146.2710
G1 X231.5174 Y-146.1379
G1 X231.6841 Y-146.0043
G1 X231.8507 Y-145.8699
G1 X232.0168 Y-145.7348
G1 X232.1834 Y-145.5981
G1 X232.3485 Y-145.4617
G1 X232.5134 Y-145.3246
G1 X232.6780 Y-145.1867
G1 X232.8421 Y-145.0482
G1 X233.0064 Y-144.9080
G1 X233.1697 Y-144.7681
G1 X233.3325 Y-144.6276
G1 X233.4948 Y-144.4861
G1 X233.6566 Y-144.3444
G1 X233.8184 Y-144.2019
G1 X233.9805 Y-144.0576
G1 X234.1420 Y-143.9126
G1 X234.3013 Y-143.7688
G1 X234.4611 Y-143.6238
G1 X234.6216 Y-143.4765
G1 X234.7806 Y-143.3299
G1 X234.9391 Y-143.1826
G1 X235.0971 Y-143.0348
G1 X235.2558 Y-142.8849
G1 X235.4130 Y-142.7353
G1 X235.7242 Y-142.4368
G1 X235.8829 Y-142.2827
G1 X236.0386 Y-142.1305
G1 X236.1936 Y-141.9779
G1 X236.3488 Y-141.8234
G1 X236.5030 Y-141.6693
G1 X236.6566 Y-141.5146
G1 X236.8108 Y-141.3584
G1 X236.9635 Y-141.2024
G1 X237.1156 Y-141.0457
G1 X237.2675 Y-140.8885
G1 X237.4196 Y-140.7295
G1 X237.5705 Y-140.5707
G1 X237.7209 Y-140.4115
G1 X237.8718 Y-140.2504
G1 X238.0211 Y-140.0899
G1 X238.1710 Y-139.9276
G1 X238.3193 Y-139.7658
G1 X238.4664 Y-139.6042
G1 X238.7608 Y-139.2771
G1 X238.9099 Y-139.1097
G1 X239.0551 Y-138.9456
G1 X239.2015 Y-138.7787
G1 X239.3465 Y-138.6124
G1 X239.4920 Y-138.4442
G1 X239.6368 Y-138.2753
G1 X239.7796 Y-138.1082
G1 X239.9233 Y-137.9380
G1 X240.0658 Y-137.7683
G1 X240.2088 Y-137.5971
G1 X240.3503 Y-137.4262
G1 X240.4920 Y-137.2535
G1 X240.6325 Y-137.0815
G1 X240.7724 Y-136.9085
G1 X240.8756 Y-136.7808
G1 X241.0785 Y-136.5268
G1 X241.2809 Y-136.2710
G1 X241.3833 Y-136.1410
G1 X241.5824 Y-135.8859
G1 X241.7816 Y-135.6281
G1 X241.9802 Y-135.3688
G1 X242.1766 Y-135.1100
G1 X242.2761 Y-134.9776
G1 X242.4694 Y-134.7191
G1 X242.5680 Y-134.5862
G1 X242.7600 Y-134.3256
G1 X242.9518 Y-134.0627
G1 X243.1423 Y-133.7988
G1 X243.3315 Y-133.5344
G1 X243.5197 Y-133.2687
G1 X243.6144 Y-133.1341
G1 X243.7999 Y-132.8679
G1 X243.9843 Y-132.6012
G1 X244.1684 Y-132.3320
G1 X244.3505 Y-132.0632
G1 X244.4433 Y-131.9253
G1 X244.6223 Y-131.6568
G1 X244.8016 Y-131.3853
G1 X244.8921 Y-131.2469
G1 X245.0681 Y-130.9764
G1 X245.2446 Y-130.7018
G1 X245.3333 Y-130.5631
G1 X245.5065 Y-130.2896
G1 X245.6797 Y-130.0137
G1 X245.8514 Y-129.7369
G1 X246.0221 Y-129.4595
G1 X246.1918 Y-129.1798
G1 X246.3597 Y-128.9007
G1 X246.5263 Y-128.6210
G1 X246.6927 Y-128.3383
G1 X246.8568 Y-128.0569
G1 X247.0198 Y-127.7739
G1 X247.1821 Y-127.4895
G1 X247.3427 Y-127.2047
G1 X247.5019 Y-126.9192
G1 X247.6607 Y-126.6320
G1 X247.8171 Y-126.3452
G1 X247.9733 Y-126.0554
G1 X248.1273 Y-125.7678
G1 X248.2812 Y-125.4763
G1 X248.3582 Y-125.3289
G1 X248.5083 Y-125.0401
G1 X248.6586 Y-124.7470
G1 X248.8077 Y-124.4531
G1 X248.9551 Y-124.1598
G1 X249.1019 Y-123.8636
G1 X249.2466 Y-123.5692
G1 X249.4618 Y-123.1240
G1 X249.6048 Y-122.8237
G1 X249.7455 Y-122.5248
G1 X249.8852 Y-122.2245
G1 X249.9558 Y-122.0714
G1 X250.0925 Y-121.7729
G1 X250.2291 Y-121.4699
G1 X250.2979 Y-121.3160
G1 X250.4318 Y-121.0140
G1 X250.5652 Y-120.7105
G1 X250.6977 Y-120.4041
G1 X250.8288 Y-120.0975
G1 X251.0224 Y-119.6376
G1 X251.1514 Y-119.3262
G1 X251.2779 Y-119.0175
G1 X251.4036 Y-118.7061
G1 X251.5281 Y-118.3940
G1 X251.6510 Y-118.0823
G1 X251.7729 Y-117.7684
G1 X251.8936 Y-117.4539
G1 X252.0130 Y-117.1392
G1 X252.1313 Y-116.8222
G1 X252.2487 Y-116.5045
G1 X252.3640 Y-116.1872
G1 X252.4790 Y-115.8672
G1 X252.5921 Y-115.5474
G1 X252.7043 Y-115.2266
G1 X252.8153 Y-114.9045
G1 X252.9251 Y-114.5822
G1 X253.0338 Y-114.2578
G1 X253.1412 Y-113.9325
G1 X253.2471 Y-113.6068
G1 X253.3520 Y-113.2807
G1 X253.4557 Y-112.9538
G1 X253.6086 Y-112.4618
G1 X253.6601 Y-112.2931
G1 X253.8090 Y-111.8004
G1 X253.8593 Y-111.6302
G1 X253.9563 Y-111.3003
G1 X254.0526 Y-110.9680
G1 X254.1481 Y-110.6327
G1 X254.2421 Y-110.2975
G1 X254.3350 Y-109.9614
G1 X254.4265 Y-109.6251
G1 X254.5171 Y-109.2853
G1 X254.6063 Y-108.9470
G1 X254.6944 Y-108.6079
G1 X254.7816 Y-108.2660
G1 X254.8672 Y-107.9233
G1 X254.9515 Y-107.5812
G1 X255.0350 Y-107.2370
G1 X255.1171 Y-106.8921
G1 X255.1981 Y-106.5461
G1 X255.3167 Y-106.0272
G1 X255.3952 Y-105.6764
G1 X255.4717 Y-105.3277
G1 X255.5474 Y-104.9779
G1 X255.6584 Y-104.4514
G1 X255.7313 Y-104.0971
G1 X255.8026 Y-103.7440
G1 X255.8730 Y-103.3892
G1 X255.9080 Y-103.2086
G1 X255.9761 Y-102.8545
G1 X256.0434 Y-102.4981
G1 X256.1095 Y-102.1392
G1 X256.1745 Y-101.7803
G1 X256.2382 Y-101.4202
G1 X256.3315 Y-100.8789
G1 X256.3927 Y-100.5154
G1 X256.4524 Y-100.1509
G1 X256.5108 Y-99.7869
G1 X256.5682 Y-99.4207
G1 X256.6518 Y-98.8718
G1 X256.7064 Y-98.5022
G1 X256.7856 Y-97.9490
G1 X256.8118 Y-97.7600
G1 X256.8623 Y-97.3907
G1 X256.9240 Y-96.9264
G1 X256.9497 Y-96.7153
G1 X256.9624 Y-96.5998
G1 X256.9848 Y-96.3854
G1 X257.0069 Y-96.1555
G1 X257.0279 Y-95.9152
G1 X257.0477 Y-95.6676
G1 X257.0668 Y-95.4151
G1 X257.0759 Y-95.2797
G1 X257.1013 Y-94.8830
G1 X257.1176 Y-94.6028
G1 X257.1399 Y-94.1753
G1 X257.1664 Y-93.5797
G1 X257.1841 Y-93.1146
G1 X257.1946 Y-92.7969
G1 X257.2090 Y-92.3143
G1 X257.2177 Y-91.9841
G1 X257.2215 Y-91.8157
G1 X257.2321 Y-91.3130
G1 X257.2408 Y-90.7989
G1 X257.2454 Y-90.4497
G1 X257.2512 Y-89.9246
G1 X257.2537 Y-89.5680
G1 X257.2563 Y-89.0333
G1 X257.2568 Y-88.3120
G1 X257.2540 Y-87.5850
G1 X257.2482 Y-86.8558
G1 X257.2415 Y-86.3077
G1 X257.2332 Y-85.7628
G1 X257.2194 Y-85.0395
G1 X257.2067 Y-84.4997
G1 X257.1928 Y-83.9668
G1 X257.1768 Y-83.4390
G1 X257.1590 Y-82.9180
G1 X257.1463 Y-82.5741
G1 X257.1257 Y-82.0692
G1 X257.1110 Y-81.7359
G1 X257.0876 Y-81.2480
G1 X257.0622 Y-80.7700
G1 X257.0356 Y-80.3057
G1 X257.0165 Y-80.0019
G1 X256.9967 Y-79.7060
G1 X256.9761 Y-79.4164
G1 X256.9548 Y-79.1340
G1 X256.9329 Y-78.8604
G1 X256.9210 Y-78.7207
G1 X256.8981 Y-78.4609
G1 X256.8743 Y-78.2063
G1 X256.8489 Y-77.9567
G1 X256.8232 Y-77.7187
G1 X256.7963 Y-77.4873
G1 X256.7821 Y-77.3717
G1 X256.7544 Y-77.1573
G1 X256.6939 Y-76.7171
G1 X256.6627 Y-76.4974
G1 X256.6314 Y-76.2803
G1 X256.5684 Y-75.8502
G1 X256.5354 Y-75.6321
G1 X256.4694 Y-75.2028
G1 X256.4008 Y-74.7720
G1 X256.3310 Y-74.3440
G1 X256.2588 Y-73.9155
G1 X256.2220 Y-73.7004
G1 X256.1847 Y-73.4868
G1 X256.1092 Y-73.0634
G1 X256.0317 Y-72.6392
G1 X255.9919 Y-72.4248
G1 X255.9119 Y-72.0044
G1 X255.8707 Y-71.7921
G1 X255.8293 Y-71.5810
G1 X255.7457 Y-71.1629
G1 X255.6594 Y-70.7428
G1 X255.5720 Y-70.3260
G1 X255.4821 Y-69.9084
G1 X255.4361 Y-69.6986
G1 X255.3901 Y-69.4906
G1 X255.2977 Y-69.0794
G1 X255.2022 Y-68.6653
G1 X255.1534 Y-68.4566
G1 X255.0559 Y-68.0474
G1 X254.9563 Y-67.6379
G1 X254.8545 Y-67.2280
G1 X254.8026 Y-67.0225
G1 X254.7506 Y-66.8177
G1 X254.6457 Y-66.4134
G1 X254.5921 Y-66.2089
G1 X254.4841 Y-65.8050
G1 X254.3741 Y-65.4014
G1 X254.3180 Y-65.1985
G1 X254.2619 Y-64.9971
G1 X254.1491 Y-64.5986
G1 X254.0909 Y-64.3959
G1 X254.0328 Y-64.1952
G1 X253.9162 Y-63.7990
G1 X253.8562 Y-63.5980
G1 X253.7963 Y-63.3992
G1 X253.7358 Y-63.2003
G1 X253.6152 Y-62.8076
G1 X253.5527 Y-62.6074
G1 X253.4905 Y-62.4098
G1 X253.3655 Y-62.0187
G1 X253.2385 Y-61.6275
G1 X253.1090 Y-61.2358
G1 X253.0429 Y-61.0387
G1 X252.9119 Y-60.6522
G1 X252.8438 Y-60.4548
G1 X252.7104 Y-60.0713
G1 X252.5738 Y-59.6847
G1 X252.5042 Y-59.4904
G1 X252.3658 Y-59.1083
G1 X252.2949 Y-58.9150
G1 X252.1532 Y-58.5340
G1 X252.0094 Y-58.1530
G1 X251.9360 Y-57.9610
G1 X251.7905 Y-57.5846
G1 X251.6419 Y-57.2066
G1 X251.4917 Y-56.8302
G1 X251.4153 Y-56.6407
G1 X251.3391 Y-56.4530
G1 X251.1859 Y-56.0809
G1 X251.1077 Y-55.8927
G1 X251.0292 Y-55.7058
G1 X250.8728 Y-55.3369
G1 X250.7132 Y-54.9664
G1 X250.5522 Y-54.5976
G1 X250.4704 Y-54.4121
G1 X250.3073 Y-54.0471
G1 X250.2240 Y-53.8625
G1 X250.1405 Y-53.6791
G1 X249.9744 Y-53.3174
G1 X249.8049 Y-52.9539
G1 X249.6340 Y-52.5922
G1 X249.5471 Y-52.4104
G1 X249.3742 Y-52.0525
G1 X249.2847 Y-51.8698
G1 X249.1102 Y-51.5155
G1 X248.9314 Y-51.1584
G1 X248.7519 Y-50.8038
G1 X248.6604 Y-50.6252
G1 X248.5687 Y-50.4474
G1 X248.3863 Y-50.0974
G1 X248.2009 Y-49.7462
G1 X248.1059 Y-49.5684
G1 X247.9192 Y-49.2222
G1 X247.8230 Y-49.0454
G1 X247.6332 Y-48.7002
G1 X247.4412 Y-48.3552
G1 X247.3429 Y-48.1805
G1 X247.2454 Y-48.0085
G1 X247.1473 Y-47.8366
G1 X246.9512 Y-47.4960
G1 X246.7526 Y-47.1554
G1 X246.6515 Y-46.9834
G1 X246.5509 Y-46.8137
G1 X246.4496 Y-46.6441
G1 X246.3475 Y-46.4739
G1 X246.1458 Y-46.1409
G1 X245.9391 Y-45.8041
G1 X245.8339 Y-45.6347
G1 X245.6269 Y-45.3037
G1 X245.5202 Y-45.1348
G1 X245.3104 Y-44.8059
G1 X245.2032 Y-44.6390
G1 X245.0955 Y-44.4731
G1 X244.8822 Y-44.1467
G1 X244.6658 Y-43.8196
G1 X244.4468 Y-43.4929
G1 X244.3361 Y-43.3294
G1 X244.1158 Y-43.0068
G1 X243.8933 Y-42.6847
G1 X243.7798 Y-42.5221
G1 X243.6673 Y-42.3616
G1 X243.4422 Y-42.0436
G1 X243.2144 Y-41.7256
G1 X243.0963 Y-41.5630
G1 X242.8687 Y-41.2511
G1 X242.6355 Y-40.9354
G1 X242.5169 Y-40.7764
G1 X242.2837 Y-40.4663
G1 X242.0468 Y-40.1551
G1 X241.9261 Y-39.9979
G1 X241.8065 Y-39.8429
G1 X241.5670 Y-39.5361
G1 X241.4450 Y-39.3812
G1 X241.3239 Y-39.2283
G1 X241.0805 Y-38.9237
G1 X240.9574 Y-38.7706
G1 X240.8344 Y-38.6187
G1 X240.7107 Y-38.4670
G1 X240.5860 Y-38.3149
G1 X240.3389 Y-38.0162
G1 X240.2116 Y-37.8638
G1 X240.0861 Y-37.7144
G1 X239.9599 Y-37.5651
G1 X239.8331 Y-37.4160
G1 X239.7064 Y-37.2676
G1 X239.5789 Y-37.1196
G1 X239.4511 Y-36.9715
G1 X239.3229 Y-36.8242
G1 X239.1943 Y-36.6771
G1 X238.9365 Y-36.3850
G1 X238.6762 Y-36.0934
G1 X238.4141 Y-35.8033
G1 X238.2802 Y-35.6565
G1 X238.1484 Y-35.5125
G1 X238.0155 Y-35.3687
G1 X237.8824 Y-35.2252
G1 X237.7491 Y-35.0822
G1 X237.6152 Y-34.9395
G1 X237.3473 Y-34.6565
G1 X237.2111 Y-34.5138
G1 X236.9406 Y-34.2326
G1 X236.8019 Y-34.0901
G1 X236.5299 Y-33.8122
G1 X236.3899 Y-33.6710
G1 X236.1148 Y-33.3949
G1 X235.8365 Y-33.1188
G1 X235.5558 Y-32.8437
G1 X235.2738 Y-32.5707
G1 X234.9901 Y-32.2989
G1 X234.8456 Y-32.1617
G1 X234.7026 Y-32.0269
G1 X234.5581 Y-31.8915
G1 X234.2739 Y-31.6266
G1 X234.0920 Y-31.4594
G1 X233.9129 Y-31.2958
G1 X233.7328 Y-31.1328
G1 X233.5515 Y-30.9700
G1 X233.3694 Y-30.8079
G1 X233.1877 Y-30.6479
G1 X233.0036 Y-30.4869
G1 X232.8217 Y-30.3291
G1 X232.6376 Y-30.1709
G1 X232.4527 Y-30.0137
G1 X232.2683 Y-29.8577
G1 X232.0834 Y-29.7028
G1 X231.8959 Y-29.5476
G1 X231.7097 Y-29.3944
G1 X231.5220 Y-29.2415
G1 X231.3348 Y-29.0904
G1 X231.1471 Y-28.9400
G1 X230.9569 Y-28.7891
G1 X230.7679 Y-28.6405
G1 X230.5787 Y-28.4930
G1 X230.3877 Y-28.3456
G1 X230.1964 Y-28.1991
G1 X230.0051 Y-28.0543
G1 X229.8139 Y-27.9103
G1 X229.6208 Y-27.7665
G1 X229.4273 Y-27.6238
G1 X229.2340 Y-27.4825
G1 X229.0404 Y-27.3421
G1 X228.8441 Y-27.2014
G1 X228.6493 Y-27.0629
G1 X228.4542 Y-26.9255
G1 X228.2586 Y-26.7889
G1 X228.0613 Y-26.6522
G1 X227.8624 Y-26.5163
G1 X227.6658 Y-26.3830
G1 X227.4679 Y-26.2499
G1 X227.2678 Y-26.1168
G1 X227.0689 Y-25.9860
G1 X226.8698 Y-25.8557
G1 X226.6696 Y-25.7264
G1 X226.4674 Y-25.5968
G1 X226.2662 Y-25.4696
G1 X226.0653 Y-25.3434
G1 X225.8619 Y-25.2169
G1 X225.6597 Y-25.0924
G1 X225.4557 Y-24.9682
G1 X225.2525 Y-24.8458
G1 X225.0483 Y-24.7239
G1 X224.8421 Y-24.6019
G1 X224.6384 Y-24.4826
G1 X224.4319 Y-24.3632
G1 X224.2264 Y-24.2453
G1 X224.0189 Y-24.1275
G1 X223.8108 Y-24.0109
G1 X223.6048 Y-23.8963
G1 X223.3950 Y-23.7810
G1 X223.1865 Y-23.6677
G1 X222.9790 Y-23.5560
G1 X222.7679 Y-23.4437
G1 X222.5584 Y-23.3332
G1 X222.3478 Y-23.2235
G1 X222.1362 Y-23.1145
G1 X221.9249 Y-23.0071
G1 X221.7130 Y-22.9001
G1 X221.5020 Y-22.7947
G1 X221.2871 Y-22.6891
G1 X221.0745 Y-22.5854
G1 X220.8609 Y-22.4826
G1 X220.6465 Y-22.3804
G1 X220.4329 Y-22.2796
G1 X220.2162 Y-22.1790
G1 X220.0008 Y-22.0800
G1 X219.7854 Y-21.9822
G1 X219.5683 Y-21.8849
G1 X219.3529 Y-21.7891
G1 X219.1334 Y-21.6931
G1 X218.9165 Y-21.5991
G1 X218.6998 Y-21.5062
G1 X218.4791 Y-21.4132
G1 X218.2607 Y-21.3220
G1 X218.0412 Y-21.2319
G1 X217.8223 Y-21.1425
G1 X217.6010 Y-21.0538
G1 X217.3803 Y-20.9662
G1 X217.1586 Y-20.8796
G1 X216.9376 Y-20.7942
G1 X216.7141 Y-20.7094
G1 X216.4946 Y-20.6268
G1 X216.2688 Y-20.5433
G1 X216.0463 Y-20.4620
G1 X215.8228 Y-20.3815
G1 X215.5988 Y-20.3017
G1 X215.3757 Y-20.2235
G1 X215.1479 Y-20.1450
G1 X214.9249 Y-20.0690
G1 X214.6978 Y-19.9928
G1 X214.4738 Y-19.9187
G1 X214.2444 Y-19.8443
G1 X214.0189 Y-19.7719
G1 X213.7915 Y-19.7002
G1 X213.5632 Y-19.6294
G1 X213.3369 Y-19.5598
G1 X213.1063 Y-19.4907
G1 X212.8782 Y-19.4231
G1 X212.6496 Y-19.3566
G1 X212.4202 Y-19.2908
G1 X212.1886 Y-19.2255
G1 X211.9597 Y-19.1620
G1 X211.7283 Y-19.0990
G1 X211.4972 Y-19.0373
G1 X211.2650 Y-18.9763
G1 X211.0346 Y-18.9169
G1 X210.8002 Y-18.8577
G1 X210.5690 Y-18.8003
G1 X210.3361 Y-18.7434
G1 X210.1022 Y-18.6875
G1 X209.8700 Y-18.6329
G1 X209.6336 Y-18.5788
G1 X209.4009 Y-18.5263
G1 X209.1654 Y-18.4744
G1 X208.9300 Y-18.4236
G1 X208.6945 Y-18.3739
G1 X208.4581 Y-18.3251
G1 X208.2218 Y-18.2773
G1 X207.9869 Y-18.2309
G1 X207.7494 Y-18.1849
G1 X207.5122 Y-18.1402
G1 X207.2747 Y-18.0965
G1 X207.0857 Y-18.0635
G1 X206.8873 Y-18.0307
G1 X206.6854 Y-17.9995
G1 X206.5757 Y-17.9835
G1 X206.3714 Y-17.9548
G1 X206.1568 Y-17.9266
G1 X205.9374 Y-17.8996
G1 X205.6036 Y-17.8615
G1 X205.3707 Y-17.8372
G1 X205.1388 Y-17.8140
G1 X204.9015 Y-17.7922
G1 X204.5396 Y-17.7615
G1 X204.2937 Y-17.7419
G1 X204.0423 Y-17.7236
G1 X203.6651 Y-17.6985
G1 X203.2785 Y-17.6754
G1 X203.1434 Y-17.6680
G1 X202.7545 Y-17.6482
G1 X202.4865 Y-17.6360
G1 X202.2185 Y-17.6251
G1 X201.9503 Y-17.6149
G1 X201.6775 Y-17.6060
G1 X201.4057 Y-17.5981
G1 X201.1314 Y-17.5910
G1 X200.8556 Y-17.5849
G1 X200.5790 Y-17.5801
G1 X200.1652 Y-17.5745
G1 X199.7471 Y-17.5710
G1 X199.4675 Y-17.5699
; Retract
G1 Z2.5400 F2540

; Path 1
; Rapid to initial position
G1 X199.5391 Y-21.9692 F2540
G1 Z0.0000
; plunge
G1 Z-3.1750 F127
; cut
G1 X199.8965 Y-21.9738 F1016
G1 X199.8965 Y-21.9740
G1 X200.1507 Y-21.9794
G1 X200.3897 Y-21.9855
G1 X200.6427 Y-21.9936
G1 X200.7542 Y-21.9977
G1 X201.1314 Y-22.0134
G1 X201.3806 Y-22.0256
G1 X201.6265 Y-22.0391
G1 X201.9864 Y-22.0612
G1 X202.3699 Y-22.0878
G1 X202.4807 Y-22.0962
G1 X202.7367 Y-22.1168
G1 X202.9777 Y-22.1371
G1 X202.9777 Y-22.1374
G1 X203.2318 Y-22.1602
G1 X203.3539 Y-22.1719
G1 X203.7207 Y-22.2087
G1 X203.7207 Y-22.2090
G1 X203.9772 Y-22.2364
G1 X203.9772 Y-22.2362
G1 X204.3471 Y-22.2786
G1 X204.5881 Y-22.3081
G1 X204.8454 Y-22.3408
G1 X205.0956 Y-22.3738
G1 X205.3440 Y-22.4081
G1 X205.5853 Y-22.4429
G1 X205.8345 Y-22.4800
G1 X206.0926 Y-22.5199
G1 X206.3316 Y-22.5580
G1 X206.3316 Y-22.5582
G1 X206.7143 Y-22.6223
G1 X206.9673 Y-22.6662
G1 X206.9673 Y-22.6659
G1 X207.2071 Y-22.7089
G1 X207.5856 Y-22.7795
G1 X207.8446 Y-22.8295
G1 X208.2234 Y-22.9052
G1 X208.4730 Y-22.9568
G1 X208.8413 Y-23.0353
G1 X209.0928 Y-23.0909
G1 X209.4829 Y-23.1793
G1 X209.6044 Y-23.2075
G1 X209.9864 Y-23.2984
G1 X210.2376 Y-23.3599
G1 X210.4832 Y-23.4213
G1 X210.7441 Y-23.4879
G1 X210.9894 Y-23.5519
G1 X211.2655 Y-23.6253
G1 X211.5358 Y-23.6987
G1 X211.8083 Y-23.7744
G1 X212.0778 Y-23.8511
G1 X212.2147 Y-23.8907
G1 X212.4695 Y-23.9657
G1 X212.7369 Y-24.0462
G1 X212.7369 Y-24.0459
G1 X212.8530 Y-24.0820
G1 X213.1040 Y-24.1605
G1 X213.3646 Y-24.2443
G1 X213.4781 Y-24.2816
G1 X213.7362 Y-24.3677
G1 X213.9749 Y-24.4495
G1 X214.2165 Y-24.5346
G1 X214.3448 Y-24.5806
G1 X214.4667 Y-24.6248
G1 X214.7146 Y-24.7165
G1 X214.9521 Y-24.8064
G1 X214.9521 Y-24.8067
G1 X215.0814 Y-24.8564
G1 X215.0814 Y-24.8562
G1 X215.1987 Y-24.9019
G1 X215.1987 Y-24.9022
G1 X215.3288 Y-24.9535
G1 X215.3288 Y-24.9532
G1 X215.4484 Y-25.0010
G1 X215.4484 Y-25.0012
G1 X215.5795 Y-25.0541
G1 X215.7057 Y-25.1054
G1 X215.8256 Y-25.1549
G1 X216.0849 Y-25.2631
G1 X216.2198 Y-25.3202
G1 X216.3422 Y-25.3728
G1 X216.6165 Y-25.4919
G1 X216.8789 Y-25.6078
G1 X217.0151 Y-25.6687
G1 X217.2927 Y-25.7942
G1 X217.5779 Y-25.9253
G1 X217.8761 Y-26.0640
G1 X218.3183 Y-26.2730
G1 X218.3183 Y-26.2733
G1 X218.6269 Y-26.4213
G1 X219.1149 Y-26.6583
G1 X219.4392 Y-26.8178
G1 X219.7776 Y-26.9855
G1 X219.9630 Y-27.0784
G1 X220.1357 Y-27.1656
G1 X220.3160 Y-27.2580
G1 X220.4936 Y-27.3497
G1 X220.6706 Y-27.4424
G1 X220.8507 Y-27.5377
G1 X221.0344 Y-27.6355
G1 X221.0344 Y-27.6352
G1 X221.2033 Y-27.7264
G1 X221.3813 Y-27.8237
G1 X221.5637 Y-27.9240
G1 X221.7339 Y-28.0185
G1 X221.7339 Y-28.0187
G1 X221.9157 Y-28.1208
G1 X222.0859 Y-28.2176
G1 X222.2604 Y-28.3174
G1 X222.4336 Y-28.4178
G1 X222.6140 Y-28.5234
G1 X222.6140 Y-28.5232
G1 X222.7831 Y-28.6230
G1 X222.9576 Y-28.7271
G1 X223.1319 Y-28.8320
G1 X223.3110 Y-28.9408
G1 X223.4771 Y-29.0426
G1 X223.6508 Y-29.1503
G1 X223.8286 Y-29.2613
G1 X223.9950 Y-29.3662
G1 X224.1723 Y-29.4790
G1 X224.3374 Y-29.5852
G1 X224.5073 Y-29.6954
G1 X224.6798 Y-29.8084
G1 X224.8555 Y-29.9242
G1 X225.0189 Y-30.0332
G1 X225.1939 Y-30.1508
G1 X225.1939 Y-30.1506
G1 X225.3569 Y-30.2613
G1 X225.5258 Y-30.3769
G1 X225.6945 Y-30.4935
G1 X225.8629 Y-30.6108
G1 X226.0359 Y-30.7322
G1 X226.1984 Y-30.8473
G1 X226.3645 Y-30.9659
G1 X226.5309 Y-31.0858
G1 X226.6983 Y-31.2075
G1 X226.8634 Y-31.3284
G1 X227.0285 Y-31.4505
G1 X227.1954 Y-31.5750
G1 X227.3653 Y-31.7025
G1 X227.5235 Y-31.8226
G1 X227.6884 Y-31.9486
G1 X227.8515 Y-32.0741
G1 X228.0199 Y-32.2049
G1 X228.1776 Y-32.3284
G1 X228.1776 Y-32.3286
G1 X228.3402 Y-32.4569
G1 X228.5070 Y-32.5897
G1 X228.5073 Y-32.5895
G1 X228.6650 Y-32.7165
G1 X228.8261 Y-32.8465
G1 X228.9868 Y-32.9776
G1 X229.1469 Y-33.1092
G1 X229.3074 Y-33.2422
G1 X229.4669 Y-33.3753
G1 X229.6310 Y-33.5135
G1 X229.7908 Y-33.6489
G1 X229.9437 Y-33.7795
G1 X230.1034 Y-33.9174
G1 X230.2609 Y-34.0540
G1 X230.4230 Y-34.1958
G1 X230.4232 Y-34.1955
G1 X230.5746 Y-34.3294
G1 X230.7326 Y-34.4698
G1 X230.8885 Y-34.6093
G1 X231.0437 Y-34.7492
G1 X231.1994 Y-34.8910
G1 X231.3589 Y-35.0370
G1 X231.5093 Y-35.1757
G1 X231.6630 Y-35.3184
G1 X231.8172 Y-35.4630
G1 X231.9701 Y-35.6072
G1 X232.1273 Y-35.7569
G1 X232.2764 Y-35.8996
G1 X232.4270 Y-36.0449
G1 X232.5792 Y-36.1930
G1 X232.7308 Y-36.3416
G1 X232.8812 Y-36.4899
G1 X233.0328 Y-36.6408
G1 X233.1817 Y-36.7896
G1 X233.1814 Y-36.7896
G1 X233.3313 Y-36.9410
G1 X233.4796 Y-37.0919
G1 X233.6322 Y-37.2483
G1 X233.7765 Y-37.3967
G1 X233.9282 Y-37.5544
G1 X234.0717 Y-37.7043
G1 X234.2187 Y-37.8597
G1 X234.3655 Y-38.0157
G1 X234.5108 Y-38.1711
G1 X234.6602 Y-38.3322
G1 X234.8022 Y-38.4861
G1 X234.9457 Y-38.6428
G1 X235.0910 Y-38.8028
G1 X235.0907 Y-38.8031
G1 X235.2383 Y-38.9666
G1 X235.2385 Y-38.9664
G1 X235.3777 Y-39.1221
G1 X235.5192 Y-39.2811
G1 X235.6625 Y-39.4439
G1 X235.8047 Y-39.6062
G1 X235.9457 Y-39.7683
G1 X236.0861 Y-39.9308
G1 X236.2302 Y-40.0990
G1 X236.3678 Y-40.2608
G1 X236.5063 Y-40.4241
G1 X236.6488 Y-40.5940
G1 X236.7836 Y-40.7558
G1 X236.9228 Y-40.9242
G1 X237.0592 Y-41.0901
G1 X237.1974 Y-41.2598
G1 X237.3328 Y-41.4266
G1 X237.4699 Y-41.5976
G1 X237.6051 Y-41.7667
G1 X237.7404 Y-41.9377
G1 X237.8786 Y-42.1132
G1 X238.0087 Y-42.2793
G1 X238.1433 Y-42.4531
G1 X238.2759 Y-42.6253
G1 X238.4097 Y-42.8003
G1 X238.5408 Y-42.9725
G1 X238.6726 Y-43.1475
G1 X238.8042 Y-43.3235
G1 X238.9383 Y-43.5038
G1 X239.0648 Y-43.6753
G1 X239.1946 Y-43.8526
G1 X239.3234 Y-44.0296
G1 X239.4552 Y-44.2123
G1 X239.5807 Y-44.3873
G1 X239.7087 Y-44.5668
G1 X239.8337 Y-44.7434
G1 X240.0879 Y-45.1071
G1 X240.2136 Y-45.2890
G1 X240.3391 Y-45.4716
G1 X240.4633 Y-45.6535
G1 X240.5858 Y-45.8346
G1 X240.8342 Y-46.2059
G1 X240.9561 Y-46.3898
G1 X241.0777 Y-46.5747
G1 X241.1992 Y-46.7609
G1 X241.3208 Y-46.9486
G1 X241.4410 Y-47.1350
G1 X241.4407 Y-47.1350
G1 X241.5601 Y-47.3217
G1 X241.6787 Y-47.5092
G1 X241.7981 Y-47.6992
G1 X241.9165 Y-47.8887
G1 X242.0338 Y-48.0779
G1 X242.1537 Y-48.2727
G1 X242.2670 Y-48.4581
G1 X242.3836 Y-48.6507
G1 X242.5017 Y-48.8467
G1 X242.5019 Y-48.8467
G1 X242.6132 Y-49.0332
G1 X242.7280 Y-49.2272
G1 X242.8443 Y-49.4248
G1 X242.8446 Y-49.4248
G1 X242.9548 Y-49.6141
G1 X243.0701 Y-49.8130
G1 X243.1796 Y-50.0035
G1 X243.2909 Y-50.1983
G1 X243.4044 Y-50.3987
G1 X243.5126 Y-50.5907
G1 X243.5123 Y-50.5907
G1 X243.6246 Y-50.7919
G1 X243.7310 Y-50.9841
G1 X243.8420 Y-51.1863
G1 X243.8423 Y-51.1863
G1 X243.9482 Y-51.3809
G1 X243.9479 Y-51.3809
G1 X244.0554 Y-51.5793
G1 X244.1623 Y-51.7784
G1 X244.2688 Y-51.9786
G1 X244.3770 Y-52.1833
G1 X244.4793 Y-52.3786
G1 X244.5842 Y-52.5803
G1 X244.6889 Y-52.7830
G1 X244.7917 Y-52.9834
G1 X244.7915 Y-52.9834
G1 X244.8966 Y-53.1906
G1 X245.0973 Y-53.5902
G1 X245.3000 Y-54.0009
G1 X245.4003 Y-54.2069
G1 X245.4991 Y-54.4111
G1 X245.5967 Y-54.6146
G1 X245.7933 Y-55.0296
G1 X245.8900 Y-55.2366
G1 X245.9866 Y-55.4446
G1 X246.0823 Y-55.6529
G1 X246.1796 Y-55.8660
G1 X246.2715 Y-56.0690
G1 X246.3655 Y-56.2788
G1 X246.3653 Y-56.2788
G1 X246.4605 Y-56.4932
G1 X246.5514 Y-56.6989
G1 X246.6437 Y-56.9100
G1 X246.7346 Y-57.1200
G1 X246.8255 Y-57.3319
G1 X246.9157 Y-57.5437
G1 X247.0051 Y-57.7555
G1 X247.0937 Y-57.9681
G1 X247.1824 Y-58.1825
G1 X247.2700 Y-58.3956
G1 X247.3566 Y-58.6085
G1 X247.4432 Y-58.8234
G1 X247.5286 Y-59.0372
G1 X247.6139 Y-59.2536
G1 X247.7003 Y-59.4738
G1 X247.7005 Y-59.4738
G1 X247.7826 Y-59.6852
G1 X247.7823 Y-59.6852
G1 X247.8654 Y-59.9006
G1 X247.9497 Y-60.1221
G1 X248.0300 Y-60.3347
G1 X248.0297 Y-60.3347
G1 X248.1102 Y-60.5498
G1 X248.2715 Y-60.9877
G1 X248.3508 Y-61.2061
G1 X248.4298 Y-61.4263
G1 X248.5075 Y-61.6448
G1 X248.5847 Y-61.8642
G1 X248.6630 Y-62.0890
G1 X248.7374 Y-62.3047
G1 X248.8128 Y-62.5259
G1 X248.8875 Y-62.7471
G1 X248.9617 Y-62.9691
G1 X249.0353 Y-63.1919
G1 X249.1075 Y-63.4119
G1 X249.1796 Y-63.6359
G1 X249.2515 Y-63.8602
G1 X249.3216 Y-64.0812
G1 X249.3919 Y-64.3062
G1 X249.4618 Y-64.5315
G1 X249.4615 Y-64.5315
G1 X249.5319 Y-64.7606
G1 X249.5982 Y-64.9796
G1 X249.6652 Y-65.2038
G1 X249.7318 Y-65.4291
G1 X249.7981 Y-65.6562
G1 X249.8649 Y-65.8871
G1 X249.9276 Y-66.1076
G1 X249.9929 Y-66.3392
G1 X249.9931 Y-66.3392
G1 X250.0551 Y-66.5622
G1 X250.0549 Y-66.5622
G1 X250.1189 Y-66.7946
G1 X250.1191 Y-66.7946
G1 X250.1788 Y-67.0143
G1 X250.3010 Y-67.4728
G1 X250.3604 Y-67.7009
G1 X250.4206 Y-67.9348
G1 X250.4209 Y-67.9348
G1 X250.4783 Y-68.1604
G1 X250.5357 Y-68.3892
G1 X250.5926 Y-68.6191
G1 X250.6500 Y-68.8543
G1 X250.6502 Y-68.8543
G1 X250.7046 Y-69.0804
G1 X250.7592 Y-69.3102
G1 X250.8136 Y-69.5427
G1 X250.8669 Y-69.7733
G1 X250.9195 Y-70.0049
G1 X250.9716 Y-70.2368
G1 X251.0229 Y-70.4690
G1 X251.0226 Y-70.4690
G1 X251.0734 Y-70.7029
G1 X251.1245 Y-70.9407
G1 X251.1722 Y-71.1667
G1 X251.1720 Y-71.1667
G1 X251.2502 Y-71.5452
G1 X251.3084 Y-71.8330
G1 X251.3940 Y-72.2673
G1 X251.4493 Y-72.5554
G1 X251.5309 Y-72.9905
G1 X251.5847 Y-73.2856
G1 X251.5850 Y-73.2856
G1 X251.6358 Y-73.5703
G1 X251.6876 Y-73.8655
G1 X251.6878 Y-73.8655
G1 X251.7361 Y-74.1474
G1 X251.7358 Y-74.1474
G1 X251.8082 Y-74.5818
G1 X251.8786 Y-75.0184
G1 X251.9241 Y-75.3087
G1 X251.9680 Y-75.5962
G1 X252.0325 Y-76.0334
G1 X252.0742 Y-76.3240
G1 X252.1156 Y-76.6199
G1 X252.1158 Y-76.6199
G1 X252.1542 Y-76.9036
G1 X252.1925 Y-77.1947
G1 X252.2296 Y-77.4824
G1 X252.2835 Y-77.9188
G1 X252.3360 Y-78.3628
G1 X252.3363 Y-78.3628
G1 X252.3846 Y-78.7908
G1 X252.4161 Y-79.0816
G1 X252.4465 Y-79.3725
G1 X252.4757 Y-79.6607
G1 X252.5177 Y-80.0969
G1 X252.5573 Y-80.5330
G1 X252.5946 Y-80.9683
G1 X252.6297 Y-81.4052
G1 X252.6515 Y-81.6961
G1 X252.6728 Y-81.9920
G1 X252.6825 Y-82.1301
G1 X252.6822 Y-82.1301
G1 X252.7115 Y-82.5741
G1 X252.7117 Y-82.5741
G1 X252.7287 Y-82.8556
G1 X252.7534 Y-83.2896
G1 X252.7826 Y-83.8713
G1 X252.8021 Y-84.3150
G1 X252.8186 Y-84.7415
G1 X252.8184 Y-84.7415
G1 X252.8329 Y-85.1764
G1 X252.8453 Y-85.6196
G1 X252.8456 Y-85.6196
G1 X252.8522 Y-85.9018
G1 X252.8519 Y-85.9018
G1 X252.8578 Y-86.1972
G1 X252.8644 Y-86.6224
G1 X252.8697 Y-87.2028
G1 X252.8710 Y-87.6376
G1 X252.8705 Y-87.9269
G1 X252.8689 Y-88.2157
G1 X252.8664 Y-88.5048
G1 X252.8646 Y-88.6518
G1 X252.8649 Y-88.6518
G1 X252.8583 Y-89.0803
G1 X252.8496 Y-89.5137
G1 X252.8425 Y-89.8022
G1 X252.8344 Y-90.0890
G1 X252.8341 Y-90.0890
G1 X252.8197 Y-90.5294
G1 X252.8199 Y-90.5294
G1 X252.8037 Y-90.9541
G1 X252.7915 Y-91.2404
G1 X252.7714 Y-91.6694
G1 X252.7407 Y-92.2454
G1 X252.7236 Y-92.5337
G1 X252.7061 Y-92.8179
G1 X252.6774 Y-93.2487
G1 X252.6571 Y-93.5340
G1 X252.6246 Y-93.9637
G1 X252.6017 Y-94.2495
G1 X252.5779 Y-94.5350
G1 X252.5530 Y-94.8202
G1 X252.5271 Y-95.1052
G1 X252.5001 Y-95.3900
G1 X252.4724 Y-95.6729
G1 X252.4285 Y-96.1014
G1 X252.4282 Y-96.1014
G1 X252.3973 Y-96.3912
G1 X252.3668 Y-96.6673
G1 X252.3175 Y-97.0945
G1 X252.2837 Y-97.3778
G1 X252.2492 Y-97.6589
G1 X252.1946 Y-98.0846
G1 X252.1572 Y-98.3671
G1 X252.1191 Y-98.6472
G1 X252.0594 Y-99.0717
G1 X252.0185 Y-99.3531
G1 X251.9766 Y-99.6343
G1 X251.9329 Y-99.9208
G1 X251.9332 Y-99.9208
G1 X251.8903 Y-100.1956
G1 X251.8900 Y-100.1956
G1 X251.8443 Y-100.4816
G1 X251.8446 Y-100.4816
G1 X251.7765 Y-100.8959
G1 X251.7292 Y-101.1745
G1 X251.6566 Y-101.5934
G1 X251.5817 Y-102.0115
G1 X251.5042 Y-102.4311
G1 X251.4524 Y-102.7054
G1 X251.3437 Y-103.2622
G1 X251.2598 Y-103.6787
G1 X251.2030 Y-103.9551
G1 X251.1453 Y-104.2297
G1 X251.1450 Y-104.2297
G1 X251.0544 Y-104.6518
G1 X251.0546 Y-104.6518
G1 X250.9957 Y-104.9190
G1 X250.9035 Y-105.3313
G1 X250.8085 Y-105.7443
G1 X250.7447 Y-106.0160
G1 X250.6444 Y-106.4346
G1 X250.5461 Y-106.8357
G1 X250.4437 Y-107.2439
G1 X250.3383 Y-107.6536
G1 X250.2662 Y-107.9297
G1 X250.1590 Y-108.3320
G1 X250.0864 Y-108.5997
G1 X250.0861 Y-108.5997
G1 X249.9721 Y-109.0127
G1 X249.9368 Y-109.1385
G1 X249.8197 Y-109.5502
G1 X249.7445 Y-109.8103
G1 X249.6238 Y-110.2203
G1 X249.5055 Y-110.6145
G1 X249.4224 Y-110.8865
G1 X249.4227 Y-110.8865
G1 X249.3005 Y-111.2799
G1 X249.2169 Y-111.5446
G1 X249.0897 Y-111.9416
G1 X248.9573 Y-112.3465
G1 X248.9576 Y-112.3465
G1 X248.8288 Y-112.7336
G1 X248.8286 Y-112.7336
G1 X248.6919 Y-113.1364
G1 X248.6045 Y-113.3904
G1 X248.4643 Y-113.7915
G1 X248.4646 Y-113.7915
G1 X248.3282 Y-114.1743
G1 X248.1837 Y-114.5730
G1 X248.0904 Y-114.8268
G1 X247.9952 Y-115.0833
G1 X247.8484 Y-115.4725
G1 X247.6998 Y-115.8603
G1 X247.6505 Y-115.9873
G1 X247.4989 Y-116.3737
G1 X247.3965 Y-116.6310
G1 X247.2952 Y-116.8834
G1 X247.1384 Y-117.2672
G1 X246.9810 Y-117.6477
G1 X246.8174 Y-118.0361
G1 X246.6586 Y-118.4074
G1 X246.5492 Y-118.6599
G1 X246.5489 Y-118.6599
G1 X246.4364 Y-118.9167
G1 X246.2731 Y-119.2850
G1 X246.1039 Y-119.6602
G1 X245.9322 Y-120.0351
G1 X245.8182 Y-120.2812
G1 X245.6429 Y-120.6543
G1 X245.5258 Y-120.9007
G1 X245.4079 Y-121.1461
G1 X245.2883 Y-121.3924
G1 X245.1684 Y-121.6370
G1 X245.0447 Y-121.8870
G1 X244.9258 Y-122.1250
G1 X244.8039 Y-122.3665
G1 X244.6139 Y-122.7384
G1 X244.6142 Y-122.7384
G1 X244.4305 Y-123.0922
G1 X244.2367 Y-123.4608
G1 X244.0493 Y-123.8123
G1 X243.9200 Y-124.0511
G1 X243.7244 Y-124.4095
G1 X243.6599 Y-124.5263
G1 X243.4577 Y-124.8895
G1 X243.3295 Y-125.1171
G1 X243.3292 Y-125.1171
G1 X243.1237 Y-125.4778
G1 X242.9213 Y-125.8278
G1 X242.9215 Y-125.8278
G1 X242.7897 Y-126.0531
G1 X242.7895 Y-126.0531
G1 X242.5822 Y-126.4034
G1 X242.4405 Y-126.6403
G1 X242.2355 Y-126.9792
G1 X242.2352 Y-126.9792
G1 X242.0935 Y-127.2103
G1 X241.9535 Y-127.4371
G1 X241.7397 Y-127.7790
G1 X241.5184 Y-128.1278
G1 X241.3775 Y-128.3475
G1 X241.2281 Y-128.5784
G1 X241.2284 Y-128.5784
G1 X241.0125 Y-128.9083
G1 X240.7900 Y-129.2436
G1 X240.5634 Y-129.5806
G1 X240.3394 Y-129.9091
G1 X240.1057 Y-130.2474
G1 X240.1059 Y-130.2474
G1 X239.9589 Y-130.4580
G1 X239.7267 Y-130.7861
G1 X239.4877 Y-131.1201
G1 X239.2581 Y-131.4366
G1 X239.2578 Y-131.4366
G1 X239.0963 Y-131.6568
G1 X238.8631 Y-131.9713
G1 X238.6216 Y-132.2923
G1 X238.4605 Y-132.5039
G1 X238.2944 Y-132.7203
G1 X238.1357 Y-132.9256
G1 X237.9729 Y-133.1341
G1 X237.7247 Y-133.4486
G1 X237.5593 Y-133.6556
G1 X237.3937 Y-133.8610
G1 X237.1415 Y-134.1707
G1 X236.9734 Y-134.3746
G1 X236.7178 Y-134.6812
G1 X236.5474 Y-134.8837
G1 X236.4618 Y-134.9842
G1 X236.2048 Y-135.2850
G1 X235.9429 Y-135.5867
G1 X235.7656 Y-135.7889
G1 X235.5936 Y-135.9832
G1 X235.4176 Y-136.1801
G1 X235.2357 Y-136.3817
G1 X235.0638 Y-136.5712
G1 X234.7946 Y-136.8641
G1 X234.6147 Y-137.0574
G1 X234.4351 Y-137.2489
G1 X234.2523 Y-137.4417
G1 X234.0722 Y-137.6304
G1 X233.7897 Y-137.9225
G1 X233.5017 Y-138.2166
G1 X233.1875 Y-138.5329
G1 X232.9884 Y-138.7315
G1 X232.8868 Y-138.8321
G1 X232.8865 Y-138.8318
G1 X232.6759 Y-139.0386
G1 X232.6762 Y-139.0388
G1 X232.3722 Y-139.3335
G1 X232.1654 Y-139.5319
G1 X231.9531 Y-139.7338
G1 X231.7519 Y-139.9235
G1 X231.7516 Y-139.9233
G1 X231.5449 Y-140.1161
G1 X231.2325 Y-140.4041
G1 X230.9177 Y-140.6901
G1 X230.7024 Y-140.8834
G1 X230.4981 Y-141.0650
G1 X230.2863 Y-141.2514
G1 X230.1819 Y-141.3426
G1 X229.9711 Y-141.5255
G1 X229.7537 Y-141.7122
G1 X229.5477 Y-141.8877
G1 X229.3348 Y-142.0668
G1 X229.1215 Y-142.2448
G1 X229.0158 Y-142.3322
G1 X228.8019 Y-142.5077
G1 X228.5883 Y-142.6815
G1 X228.3727 Y-142.8549
G1 X228.2660 Y-142.9400
G1 X228.0506 Y-143.1107
G1 X227.8289 Y-143.2847
G1 X227.7278 Y-143.3632
G1 X227.5111 Y-143.5303
G1 X227.2881 Y-143.7008
G1 X227.0780 Y-143.8595
G1 X227.0780 Y-143.8593
G1 X226.8540 Y-144.0266
G1 X226.6424 Y-144.1834
G1 X226.6424 Y-144.1831
G1 X226.4174 Y-144.3477
G1 X226.2050 Y-144.5016
G1 X225.9790 Y-144.6634
G1 X225.7659 Y-144.8143
G1 X225.7659 Y-144.8140
G1 X225.5462 Y-144.9680
G1 X225.3247 Y-145.1211
G1 X225.0966 Y-145.2773
G1 X225.0968 Y-145.2776
G1 X224.8830 Y-145.4224
G1 X224.8830 Y-145.4221
G1 X224.6539 Y-145.5753
G1 X224.4308 Y-145.7228
G1 X224.2160 Y-145.8636
G1 X223.9912 Y-146.0086
G1 X223.7697 Y-146.1501
G1 X223.4222 Y-146.3688
G1 X223.3186 Y-146.4333
G1 X223.0948 Y-146.5712
G1 X222.8616 Y-146.7129
G1 X222.6419 Y-146.8453
G1 X222.6419 Y-146.8450
G1 X222.4080 Y-146.9840
G1 X222.1898 Y-147.1120
G1 X221.8372 Y-147.3157
G1 X221.6120 Y-147.4437
G1 X221.3907 Y-147.5679
G1 X221.1608 Y-147.6952
G1 X220.9246 Y-147.8244
G1 X220.7011 Y-147.9451
G1 X220.4710 Y-148.0678
G1 X220.4710 Y-148.0675
G1 X220.2322 Y-148.1930
G1 X220.0013 Y-148.3126
G1 X219.7771 Y-148.4274
G1 X219.5439 Y-148.5450
G1 X219.4235 Y-148.6050
G1 X219.1868 Y-148.7221
G1 X218.9602 Y-148.8323
G1 X218.7184 Y-148.9486
G1 X218.4850 Y-149.0591
G1 X218.1405 Y-149.2192
G1 X217.9053 Y-149.3263
G1 X217.6610 Y-149.4361
G1 X217.6610 Y-149.4363
G1 X217.4316 Y-149.5379
G1 X217.4316 Y-149.5377
G1 X217.1865 Y-149.6446
G1 X216.9589 Y-149.7424
G1 X216.5904 Y-149.8976
G1 X216.2343 Y-150.0442
G1 X216.0016 Y-150.1376
G1 X215.7532 Y-150.2362
G1 X215.4004 Y-150.3733
G1 X215.2757 Y-150.4208
G1 X215.0407 Y-150.5095
G1 X214.6760 Y-150.6441
G1 X214.4248 Y-150.7348
G1 X214.1898 Y-150.8181
G1 X213.9391 Y-150.9055
G1 X213.7024 Y-150.9862
G1 X213.4494 Y-151.0711
G1 X213.2112 Y-151.1496
G1 X213.0890 Y-151.1892
G1 X212.8345 Y-151.2707
G1 X212.5962 Y-151.3456
G1 X212.5962 Y-151.3454
G1 X212.4685 Y-151.3848
G1 X212.2264 Y-151.4587
G1 X211.9775 Y-151.5328
G1 X211.7209 Y-151.6080
G1 X211.4809 Y-151.6766
G1 X211.2312 Y-151.7467
G1 X211.1019 Y-151.7823
G1 X210.7217 Y-151.8849
G1 X210.3564 Y-151.9799
G1 X210.1042 Y-152.0436
G1 X209.8528 Y-152.1059
G1 X209.5980 Y-152.1673
G1 X209.4748 Y-152.1965
G1 X209.2129 Y-152.2573
G1 X209.2129 Y-152.2575
G1 X208.9648 Y-152.3139
G1 X208.8406 Y-152.3416
G1 X208.8406 Y-152.3413
G1 X208.5774 Y-152.3985
G1 X208.3295 Y-152.4511
G1 X208.0651 Y-152.5057
G1 X207.8170 Y-152.5554
G1 X207.5518 Y-152.6073
G1 X207.3044 Y-152.6540
G1 X207.0382 Y-152.7028
G1 X206.7883 Y-152.7475
G1 X206.7883 Y-152.7472
G1 X206.5203 Y-152.7932
G1 X206.2599 Y-152.8366
G1 X205.8695 Y-152.8991
G1 X205.6178 Y-152.9372
G1 X205.3481 Y-152.9771
G1 X205.2203 Y-152.9954
G1 X204.9640 Y-153.0309
G1 X204.9640 Y-153.0307
G1 X204.6930 Y-153.0670
G1 X204.5706 Y-153.0828
G1 X204.2988 Y-153.1168
G1 X204.0357 Y-153.1483
G1 X203.7829 Y-153.1772
G1 X203.5236 Y-153.2052
G1 X203.3895 Y-153.2189
G1 X203.1375 Y-153.2438
G1 X202.8683 Y-153.2684
G1 X202.6089 Y-153.2908
G1 X202.2312 Y-153.3200
G1 X202.0969 Y-153.3294
G1 X201.8429 Y-153.3464
G1 X201.7085 Y-153.3545
G1 X201.4441 Y-153.3698
G1 X201.4441 Y-153.3700
G1 X201.0689 Y-153.3883
G1 X200.6755 Y-153.4038
G1 X200.4141 Y-153.4119
G1 X200.1576 Y-153.4185
G1 X199.8901 Y-153.4236
G1 X199.6402 Y-153.4269
G1 X199.3709 Y-153.4287
G1 X199.2465 Y-153.4290
G1 X199.1208 Y-153.4287
G1 X198.8619 Y-153.4272
G1 X198.5927 Y-153.4239
G1 X198.3387 Y-153.4193
G1 X198.0745 Y-153.4127
G1 X197.8216 Y-153.4051
G1 X197.6943 Y-153.4005
G1 X197.4248 Y-153.3896
G1 X197.1726 Y-153.3782
G1 X196.9077 Y-153.3639
G1 X196.6539 Y-153.3492
G1 X196.5254 Y-153.3411
G1 X196.5254 Y-153.3408
G1 X196.2582 Y-153.3228
G1 X196.0067 Y-153.3040
G1 X195.7382 Y-153.2821
G1 X195.4779 Y-153.2595
G1 X195.4779 Y-153.2598
G1 X195.2282 Y-153.2367
G1 X195.2282 Y-153.2364
G1 X194.9592 Y-153.2098
G1 X194.9592 Y-153.2100
G1 X194.7093 Y-153.1836
G1 X194.7093 Y-153.1833
G1 X194.4500 Y-153.1544
G1 X194.3151 Y-153.1386
G1 X194.0517 Y-153.1069
G1 X194.0517 Y-153.1071
G1 X193.8010 Y-153.0754
G1 X193.8010 Y-153.0751
G1 X193.6669 Y-153.0574
G1 X193.4037 Y-153.0215
G1 X193.1457 Y-152.9847
G1 X192.8962 Y-152.9476
G1 X192.6366 Y-152.9072
G1 X192.3684 Y-152.8641
G1 X192.1104 Y-152.8209
G1 X191.8617 Y-152.7777
G1 X191.6026 Y-152.7310
G1 X191.3349 Y-152.6812
G1 X191.0771 Y-152.6316
G1 X190.8185 Y-152.5803
G1 X190.5688 Y-152.5293
G1 X190.3113 Y-152.4749
G1 X190.1825 Y-152.4470
G1 X189.9252 Y-152.3903
G1 X189.6582 Y-152.3299
G1 X189.5396 Y-152.3025
G1 X189.5396 Y-152.3022
G1 X189.2729 Y-152.2392
G1 X189.0240 Y-152.1790
G1 X188.7578 Y-152.1130
G1 X188.5018 Y-152.0477
G1 X188.2513 Y-151.9824
G1 X187.9973 Y-151.9144
G1 X187.7403 Y-151.8440
G1 X187.6077 Y-151.8069
G1 X187.3474 Y-151.7332
G1 X187.1030 Y-151.6626
G1 X187.1030 Y-151.6624
G1 X186.7060 Y-151.5443
G1 X186.4535 Y-151.4671
G1 X186.3336 Y-151.4297
G1 X186.0738 Y-151.3479
G1 X185.8157 Y-151.2649
G1 X185.8157 Y-151.2651
G1 X185.5714 Y-151.1851
G1 X185.5714 Y-151.1849
G1 X185.1881 Y-151.0561
G1 X184.9255 Y-150.9657
G1 X184.9255 Y-150.9659
G1 X184.6786 Y-150.8790
G1 X184.4162 Y-150.7856
G1 X184.2933 Y-150.7411
G1 X184.0370 Y-150.6471
G1 X183.7934 Y-150.5562
G1 X183.5323 Y-150.4569
G1 X183.2788 Y-150.3591
G1 X183.0258 Y-150.2598
G1 X182.7751 Y-150.1595
G1 X182.5307 Y-150.0604
G1 X182.2709 Y-149.9532
G1 X182.0205 Y-149.8481
G1 X181.7685 Y-149.7409
G1 X181.5264 Y-149.6360
G1 X181.2679 Y-149.5224
G1 X181.2679 Y-149.5227
G1 X181.0266 Y-149.4150
G1 X180.7688 Y-149.2982
G1 X180.5188 Y-149.1833
G1 X180.2686 Y-149.0670
G1 X180.1528 Y-149.0121
G1 X179.9039 Y-148.8935
G1 X179.6476 Y-148.7698
G1 X179.2747 Y-148.5864
G1 X179.0352 Y-148.4666
G1 X178.9077 Y-148.4020
G1 X178.6580 Y-148.2745
G1 X178.4126 Y-148.1473
G1 X178.1647 Y-148.0175
G1 X178.0502 Y-147.9565
G1 X177.7967 Y-147.8209
G1 X177.5503 Y-147.6875
G1 X177.5503 Y-147.6878
G1 X177.1899 Y-147.4889
G1 X177.0639 Y-147.4186
G1 X176.8257 Y-147.2844
G1 X176.5744 Y-147.1409
G1 X176.3293 Y-146.9995
G1 X176.0875 Y-146.8580
G1 X175.8523 Y-146.7185
G1 X175.6029 Y-146.5689
G1 X175.3603 Y-146.4219
G1 X175.1198 Y-146.2740
G1 X174.8782 Y-146.1239
G1 X174.6380 Y-145.9728
G1 X174.3977 Y-145.8199
G1 X174.2867 Y-145.7488
G1 X174.2867 Y-145.7485
G1 X173.9171 Y-145.5085
G1 X173.8013 Y-145.4325
G1 X173.6837 Y-145.3545
G1 X173.4480 Y-145.1973
G1 X173.2031 Y-145.0325
G1 X172.8470 Y-144.7889
G1 X172.6115 Y-144.6256
G1 X172.3827 Y-144.4650
G1 X172.1404 Y-144.2931
G1 X171.9044 Y-144.1239
G1 X171.7901 Y-144.0411
G1 X171.5625 Y-143.8753
G1 X171.4078 Y-143.7607
G1 X171.2610 Y-143.6497
G1 X171.2610 Y-143.6500
G1 X171.1165 Y-143.5387
G1 X171.0337 Y-143.4742
G1 X170.9567 Y-143.4135
G1 X170.7924 Y-143.2827
G1 X170.7139 Y-143.2194
G1 X170.5516 Y-143.0876
G1 X170.3728 Y-142.9403
G1 X170.2059 Y-142.8011
G1 X170.0213 Y-142.6451
G1 X169.8391 Y-142.4899
G1 X169.6557 Y-142.3317
G1 X169.3799 Y-142.0909
G1 X169.1836 Y-141.9174
G1 X168.9892 Y-141.7444
G1 X168.7954 Y-141.5699
G1 X168.5968 Y-141.3901
G1 X168.3982 Y-141.2085
G1 X168.2018 Y-141.0277
G1 X167.8907 Y-140.7386
G1 X167.5892 Y-140.4554
G1 X167.2730 Y-140.1552
G1 X166.9608 Y-139.8560
G1 X166.6527 Y-139.5573
G1 X166.3327 Y-139.2446
G1 X166.3324 Y-139.2448
G1 X166.0223 Y-138.9385
G1 X165.8089 Y-138.7264
G1 X165.4942 Y-138.4109
G1 X165.1800 Y-138.0934
G1 X164.8691 Y-137.7759
G1 X164.6626 Y-137.5639
G1 X164.4612 Y-137.3553
G1 X164.1498 Y-137.0307
G1 X163.8473 Y-136.7122
G1 X163.6481 Y-136.5009
G1 X163.3555 Y-136.1877
G1 X163.1569 Y-135.9733
G1 X162.8717 Y-135.6629
G1 X162.6786 Y-135.4511
G1 X162.6784 Y-135.4513
G1 X162.4924 Y-135.2453
G1 X162.2219 Y-134.9433
G1 X162.0383 Y-134.7361
G1 X161.7731 Y-134.4341
G1 X161.6032 Y-134.2385
G1 X161.3517 Y-133.9456
G1 X161.1912 Y-133.7561
G1 X161.0383 Y-133.5743
G1 X160.8790 Y-133.3825
G1 X160.6608 Y-133.1163
G1 X160.5859 Y-133.0236
G1 X160.5857 Y-133.0239
G1 X160.4508 Y-132.8552
G1 X160.2389 Y-132.5867
G1 X160.0484 Y-132.3396
G1 X159.9971 Y-132.2718
G1 X159.8717 Y-132.1044
G1 X159.7513 Y-131.9418
G1 X159.5059 Y-131.6068
G1 X159.3886 Y-131.4447
G1 X159.2649 Y-131.2733
G1 X159.1447 Y-131.1057
G1 X159.0251 Y-130.9375
G1 X158.9087 Y-130.7729
G1 X158.9090 Y-130.7729
G1 X158.7876 Y-130.5999
G1 X158.7873 Y-130.5999
G1 X158.6690 Y-130.4303
G1 X158.5516 Y-130.2609
G1 X158.3169 Y-129.9187
G1 X158.2052 Y-129.7539
G1 X158.0871 Y-129.5789
G1 X157.9723 Y-129.4077
G1 X157.8582 Y-129.2362
G1 X157.7442 Y-129.0637
G1 X157.6337 Y-128.8959
G1 X157.6339 Y-128.8959
G1 X157.5186 Y-128.7191
G1 X157.4061 Y-128.5456
G1 X157.1864 Y-128.2035
G1 X157.1866 Y-128.2035
G1 X157.0736 Y-128.0254
G1 X156.9634 Y-127.8509
G1 X156.9631 Y-127.8509
G1 X156.8572 Y-127.6817
G1 X156.7459 Y-127.5027
G1 X156.5275 Y-127.1483
G1 X156.4221 Y-126.9754
G1 X156.2080 Y-126.6205
G1 X156.0012 Y-126.2733
G1 X155.8943 Y-126.0917
G1 X155.7934 Y-125.9192
G1 X155.5824 Y-125.5550
G1 X155.3787 Y-125.1984
G1 X155.2783 Y-125.0208
G1 X155.0761 Y-124.6594
G1 X154.9781 Y-124.4821
G1 X154.8788 Y-124.3015
G1 X154.6855 Y-123.9459
G1 X154.4866 Y-123.5751
G1 X154.3916 Y-123.3960
G1 X154.2956 Y-123.2136
G1 X154.2001 Y-123.0310
G1 X154.0101 Y-122.6637
G1 X153.9207 Y-122.4892
G1 X153.9210 Y-122.4892
G1 X153.7310 Y-122.1138
G1 X153.5473 Y-121.7458
G1 X153.4574 Y-121.5634
G1 X153.2760 Y-121.1915
G1 X153.0975 Y-120.8204
G1 X152.9220 Y-120.4496
G1 X152.8359 Y-120.2654
G1 X152.6616 Y-119.8893
G1 X152.4950 Y-119.5240
G1 X152.3228 Y-119.1405
G1 X152.1567 Y-118.7646
G1 X151.9921 Y-118.3866
G1 X151.8303 Y-118.0092
G1 X151.6705 Y-117.6302
G1 X151.5923 Y-117.4425
G1 X151.4343 Y-117.0592
G1 X151.3586 Y-116.8725
G1 X151.2034 Y-116.4869
G1 X151.1290 Y-116.2990
G1 X151.0535 Y-116.1072
G1 X150.9034 Y-115.7214
G1 X150.8303 Y-115.5311
G1 X150.7576 Y-115.3399
G1 X150.6850 Y-115.1473
G1 X150.6129 Y-114.9546
G1 X150.4691 Y-114.5659
G1 X150.3992 Y-114.3747
G1 X150.2590 Y-113.9853
G1 X150.1219 Y-113.5977
G1 X150.0546 Y-113.4052
G1 X149.9230 Y-113.0231
G1 X149.7901 Y-112.6305
G1 X149.7904 Y-112.6305
G1 X149.7239 Y-112.4311
G1 X149.7236 Y-112.4311
G1 X149.5941 Y-112.0376
G1 X149.4676 Y-111.6462
G1 X149.3434 Y-111.2540
G1 X149.2824 Y-111.0592
G1 X149.1607 Y-110.6640
G1 X149.1018 Y-110.4694
G1 X148.9827 Y-110.0717
G1 X148.9260 Y-109.8784
G1 X148.8100 Y-109.4786
G1 X148.6974 Y-109.0826
G1 X148.6426 Y-108.8868
G1 X148.5875 Y-108.6881
G1 X148.4787 Y-108.2888
G1 X148.4257 Y-108.0910
G1 X148.4254 Y-108.0910
G1 X148.3746 Y-107.8989
G1 X148.3749 Y-107.8989
G1 X148.2687 Y-107.4920
G1 X148.2684 Y-107.4920
G1 X148.2187 Y-107.2982
G1 X148.2189 Y-107.2982
G1 X148.1671 Y-107.0943
G1 X148.0668 Y-106.6927
G1 X147.9705 Y-106.2985
G1 X147.9707 Y-106.2985
G1 X147.9217 Y-106.0940
G1 X147.8265 Y-105.6904
G1 X147.7358 Y-105.2952
G1 X147.6896 Y-105.0902
G1 X147.6017 Y-104.6932
G1 X147.5128 Y-104.2820
G1 X147.4711 Y-104.0841
G1 X147.4709 Y-104.0841
G1 X147.3868 Y-103.6787
G1 X147.3459 Y-103.4773
G1 X147.2646 Y-103.0704
G1 X147.1864 Y-102.6660
G1 X147.1115 Y-102.2673
G1 X147.0734 Y-102.0602
G1 X146.9997 Y-101.6518
G1 X146.9641 Y-101.4504
G1 X146.8938 Y-101.0422
G1 X146.8262 Y-100.6361
G1 X146.7945 Y-100.4397
G1 X146.7284 Y-100.0242
G1 X146.6660 Y-99.6170
G1 X146.6058 Y-99.2094
G1 X146.5765 Y-99.0069
G1 X146.5189 Y-98.5959
G1 X146.4650 Y-98.1941
G1 X146.4379 Y-97.9856
G1 X146.3858 Y-97.5738
G1 X146.3855 Y-97.5738
G1 X146.3357 Y-97.1639
G1 X146.2880 Y-96.7537
G1 X146.2428 Y-96.3452
G1 X146.2001 Y-95.9421
G1 X146.1790 Y-95.7329
G1 X146.1381 Y-95.3181
G1 X146.1005 Y-94.9145
G1 X146.1008 Y-94.9145
G1 X146.0823 Y-94.7049
G1 X146.0472 Y-94.2917
G1 X146.0142 Y-93.8799
G1 X145.9987 Y-93.6760
G1 X145.9690 Y-93.2632
G1 X145.9420 Y-92.8581
G1 X145.9288 Y-92.6480
G1 X145.9042 Y-92.2340
G1 X145.8930 Y-92.0364
G1 X145.8933 Y-92.0364
G1 X145.8717 Y-91.6165
G1 X145.8714 Y-91.6165
G1 X145.8529 Y-91.2127
G1 X145.8531 Y-91.2127
G1 X145.8359 Y-90.7926
G1 X145.8209 Y-90.3801
G1 X145.8082 Y-89.9686
G1 X145.7975 Y-89.5563
G1 X145.7932 Y-89.3529
G1 X145.7856 Y-88.9386
G1 X145.7825 Y-88.7407
G1 X145.7828 Y-88.7407
G1 X145.7785 Y-88.3206
G1 X145.7762 Y-87.9081
G1 X145.7759 Y-87.7105
G1 X145.7769 Y-87.2962
G1 X145.7782 Y-87.0920
G1 X145.7823 Y-86.6719
G1 X145.7884 Y-86.2675
G1 X145.7924 Y-86.0577
G1 X145.7922 Y-86.0577
G1 X145.8013 Y-85.6513
G1 X145.8016 Y-85.6513
G1 X145.8130 Y-85.2394
G1 X145.8199 Y-85.0295
G1 X145.8341 Y-84.6226
G1 X145.8509 Y-84.2101
G1 X145.8600 Y-84.0064
G1 X145.8803 Y-83.5873
G1 X145.9017 Y-83.1837
G1 X145.9255 Y-82.7740
G1 X145.9517 Y-82.3633
G1 X145.9799 Y-81.9536
G1 X146.0104 Y-81.5414
G1 X146.0261 Y-81.3384
G1 X146.0594 Y-80.9295
G1 X146.0950 Y-80.5195
G1 X146.0952 Y-80.5195
G1 X146.1336 Y-80.1025
G1 X146.1524 Y-79.9059
G1 X146.1930 Y-79.4977
G1 X146.2357 Y-79.0900
G1 X146.2367 Y-79.0814
G1 X146.2811 Y-78.6790
G1 X146.3040 Y-78.4779
G1 X146.3520 Y-78.0702
G1 X146.4020 Y-77.6635
G1 X146.4546 Y-77.2546
G1 X146.4815 Y-77.0514
G1 X146.5087 Y-76.8500
G1 X146.5649 Y-76.4446
G1 X146.6233 Y-76.0390
G1 X146.6245 Y-76.0308
G1 X146.6840 Y-75.6326
G1 X146.7150 Y-75.4309
G1 X146.7787 Y-75.0250
G1 X146.8112 Y-74.8228
G1 X146.8115 Y-74.8228
G1 X146.8445 Y-74.6209
G1 X146.8778 Y-74.4217
G1 X146.9481 Y-74.0103
G1 X146.9817 Y-73.8167
G1 X146.9819 Y-73.8167
G1 X147.0553 Y-73.4060
G1 X147.1280 Y-73.0105
G1 X147.1656 Y-72.8114
G1 X147.2430 Y-72.4080
G1 X147.2824 Y-72.2076
G1 X147.3230 Y-72.0034
G1 X147.3228 Y-72.0034
G1 X147.4031 Y-71.6084
G1 X147.4447 Y-71.4085
G1 X147.5306 Y-71.0011
G1 X147.5717 Y-70.8101
G1 X147.6588 Y-70.4126
G1 X147.7485 Y-70.0143
G1 X147.8404 Y-69.6150
G1 X147.8407 Y-69.6150
G1 X147.8882 Y-69.4126
G1 X147.9819 Y-69.0199
G1 X148.0292 Y-68.8249
G1 X148.1270 Y-68.4294
G1 X148.2270 Y-68.0334
G1 X148.2776 Y-67.8373
G1 X148.3802 Y-67.4444
G1 X148.4854 Y-67.0512
G1 X148.5946 Y-66.6509
G1 X148.5943 Y-66.6509
G1 X148.6469 Y-66.4611
G1 X148.6472 Y-66.4611
G1 X148.7030 Y-66.2615
G1 X148.7028 Y-66.2615
G1 X148.8130 Y-65.8744
G1 X148.8684 Y-65.6821
G1 X148.8686 Y-65.6821
G1 X148.9852 Y-65.2844
G1 X148.9850 Y-65.2844
G1 X149.0988 Y-64.9041
G1 X149.2179 Y-64.5137
G1 X149.2791 Y-64.3158
G1 X149.3987 Y-63.9333
G1 X149.3990 Y-63.9333
G1 X149.4599 Y-63.7416
G1 X149.5219 Y-63.5490
G1 X149.6474 Y-63.1634
G1 X149.7744 Y-62.7799
G1 X149.9039 Y-62.3964
G1 X150.0355 Y-62.0136
G1 X150.1689 Y-61.6323
G1 X150.3048 Y-61.2513
G1 X150.4424 Y-60.8714
G1 X150.5831 Y-60.4901
G1 X150.6538 Y-60.3009
G1 X150.7264 Y-60.1078
G1 X150.7261 Y-60.1078
G1 X150.7962 Y-59.9232
G1 X150.8684 Y-59.7347
G1 X150.9398 Y-59.5495
G1 X150.9400 Y-59.5495
G1 X151.0901 Y-59.1657
G1 X151.0899 Y-59.1657
G1 X151.1610 Y-58.9859
G1 X151.3108 Y-58.6118
G1 X151.4635 Y-58.2369
G1 X151.5420 Y-58.0464
G1 X151.6951 Y-57.6786
G1 X151.7731 Y-57.4937
G1 X151.8519 Y-57.3085
G1 X151.9311 Y-57.1236
G1 X152.0104 Y-56.9404
G1 X152.1722 Y-56.5699
G1 X152.2534 Y-56.3860
G1 X152.3352 Y-56.2023
G1 X152.4175 Y-56.0187
G1 X152.4988 Y-55.8389
G1 X152.6675 Y-55.4703
G1 X152.7503 Y-55.2910
G1 X152.9217 Y-54.9247
G1 X153.0093 Y-54.7393
G1 X153.1798 Y-54.3827
G1 X153.2666 Y-54.2031
G1 X153.4432 Y-53.8419
G1 X153.5318 Y-53.6631
G1 X153.7114 Y-53.3034
G1 X153.8018 Y-53.1244
G1 X153.8928 Y-52.9458
G1 X153.9862 Y-52.7634
G1 X153.9860 Y-52.7634
G1 X154.0749 Y-52.5917
G1 X154.2611 Y-52.2346
G1 X154.3533 Y-52.0598
G1 X154.5425 Y-51.7050
G1 X154.6375 Y-51.5287
G1 X154.7330 Y-51.3527
G1 X154.8272 Y-51.1800
G1 X155.0220 Y-50.8274
G1 X155.1216 Y-50.6489
G1 X155.2153 Y-50.4817
G1 X155.4145 Y-50.1315
G1 X155.5161 Y-49.9542
G1 X155.7122 Y-49.6156
G1 X155.9146 Y-49.2712
G1 X156.1196 Y-48.9270
G1 X156.2217 Y-48.7573
G1 X156.4292 Y-48.4160
G1 X156.5333 Y-48.2468
G1 X156.7485 Y-47.8998
G1 X156.7482 Y-47.8998
G1 X156.8498 Y-47.7380
G1 X156.9557 Y-47.5704
G1 X157.1704 Y-47.2336
G1 X157.2809 Y-47.0621
G1 X157.2806 Y-47.0621
G1 X157.3863 Y-46.8991
G1 X157.4952 Y-46.7322
G1 X157.4955 Y-46.7322
G1 X157.6075 Y-46.5618
G1 X157.6073 Y-46.5618
G1 X157.7144 Y-46.3997
G1 X157.7147 Y-46.3997
G1 X157.8277 Y-46.2300
G1 X157.9357 Y-46.0687
G1 X158.0472 Y-45.9036
G1 X158.1587 Y-45.7396
G1 X158.2712 Y-45.5750
G1 X158.3842 Y-45.4106
G1 X158.4973 Y-45.2476
G1 X158.6113 Y-45.0840
G1 X158.7254 Y-44.9217
G1 X158.8430 Y-44.7553
G1 X158.8427 Y-44.7553
G1 X158.9552 Y-44.5973
G1 X159.0713 Y-44.4353
G1 X159.1904 Y-44.2699
G1 X159.4213 Y-43.9529
G1 X159.5394 Y-43.7924
G1 X159.6573 Y-43.6331
G1 X159.7739 Y-43.4767
G1 X160.0149 Y-43.1566
G1 X160.1353 Y-42.9981
G1 X160.2555 Y-42.8409
G1 X160.3756 Y-42.6850
G1 X160.3759 Y-42.6850
G1 X160.6258 Y-42.3634
G1 X160.8666 Y-42.0578
G1 X160.9908 Y-41.9019
G1 X161.1127 Y-41.7495
G1 X161.3637 Y-41.4393
G1 X161.4899 Y-41.2849
G1 X161.6166 Y-41.1310
G1 X161.7464 Y-40.9740
G1 X161.8699 Y-40.8259
G1 X161.9979 Y-40.6733
G1 X162.1236 Y-40.5242
G1 X162.3880 Y-40.2140
G1 X162.5130 Y-40.0690
G1 X162.6425 Y-39.9194
G1 X162.7726 Y-39.7703
G1 X162.9047 Y-39.6202
G1 X163.0340 Y-39.4739
G1 X163.3007 Y-39.1752
G1 X163.4325 Y-39.0289
G1 X163.5669 Y-38.8811
G1 X163.7002 Y-38.7350
G1 X163.8356 Y-38.5879
G1 X163.9702 Y-38.4424
G1 X164.1053 Y-38.2974
G1 X164.2412 Y-38.1526
G1 X164.3774 Y-38.0086
G1 X164.5153 Y-37.8638
G1 X164.6563 Y-37.7165
G1 X164.7878 Y-37.5796
G1 X165.0726 Y-37.2872
G1 X165.3466 Y-37.0093
G1 X165.4868 Y-36.8686
G1 X165.6276 Y-36.7284
G1 X165.7726 Y-36.5849
G1 X165.9092 Y-36.4503
G1 X166.1950 Y-36.1719
G1 X166.5229 Y-35.8564
G1 X166.8473 Y-35.5478
G1 X167.1762 Y-35.2384
G1 X167.3827 Y-35.0459
G1 X167.7076 Y-34.7462
G1 X168.0172 Y-34.4642
G1 X168.2245 Y-34.2773
G1 X168.5374 Y-33.9984
G1 X168.7441 Y-33.8163
G1 X168.9519 Y-33.6352
G1 X169.1564 Y-33.4581
G1 X169.3603 Y-33.2837
G1 X169.6682 Y-33.0233
G1 X169.8709 Y-32.8541
G1 X170.1770 Y-32.6019
G1 X170.3802 Y-32.4368
G1 X170.5841 Y-32.2730
G1 X170.7934 Y-32.1064
G1 X170.7934 Y-32.1061
G1 X170.9870 Y-31.9540
G1 X171.3014 Y-31.7101
G1 X171.5950 Y-31.4863
G1 X171.9031 Y-31.2557
G1 X172.0085 Y-31.1777
G1 X172.0085 Y-31.1775
G1 X172.2072 Y-31.0319
G1 X172.2072 Y-31.0322
G1 X172.4185 Y-30.8790
G1 X172.5132 Y-30.8110
G1 X172.7180 Y-30.6652
G1 X172.9242 Y-30.5204
G1 X173.0309 Y-30.4462
G1 X173.2305 Y-30.3083
G1 X173.5404 Y-30.0977
G1 X173.8648 Y-29.8818
G1 X174.0662 Y-29.7497
G1 X174.2765 Y-29.6134
G1 X174.4861 Y-29.4792
G1 X174.8173 Y-29.2707
G1 X175.0230 Y-29.1435
G1 X175.2382 Y-29.0116
G1 X175.4556 Y-28.8803
G1 X175.6821 Y-28.7452
G1 X175.8960 Y-28.6192
G1 X175.8960 Y-28.6195
G1 X176.1254 Y-28.4858
G1 X176.1254 Y-28.4856
G1 X176.4520 Y-28.2986
G1 X176.7934 Y-28.1066
G1 X177.0296 Y-27.9758
G1 X177.3784 Y-27.7856
G1 X177.6042 Y-27.6642
G1 X177.8409 Y-27.5384
G1 X178.0857 Y-27.4096
G1 X178.4482 Y-27.2219
G1 X178.8074 Y-27.0391
G1 X178.8074 Y-27.0393
G1 X179.0550 Y-26.9149
G1 X179.3039 Y-26.7912
G1 X179.6926 Y-26.6004
G1 X179.8170 Y-26.5400
G1 X180.1858 Y-26.3627
G1 X180.4192 Y-26.2524
G1 X180.6600 Y-26.1402
G1 X180.8861 Y-26.0360
G1 X181.1274 Y-25.9265
G1 X181.3623 Y-25.8211
G1 X181.5958 Y-25.7180
G1 X181.8216 Y-25.6197
G1 X181.8216 Y-25.6200
G1 X182.0634 Y-25.5163
G1 X182.0634 Y-25.5161
G1 X182.2912 Y-25.4198
G1 X182.4073 Y-25.3713
G1 X182.4073 Y-25.3716
G1 X182.6496 Y-25.2715
G1 X182.8770 Y-25.1788
G1 X183.1195 Y-25.0815
G1 X183.3540 Y-24.9890
G1 X183.5813 Y-24.9006
G1 X183.6974 Y-24.8562
G1 X183.6974 Y-24.8564
G1 X184.0624 Y-24.7185
G1 X184.2948 Y-24.6327
G1 X184.4048 Y-24.5925
G1 X184.6486 Y-24.5046
G1 X184.8767 Y-24.4239
G1 X185.1134 Y-24.3413
G1 X185.2356 Y-24.2994
G1 X185.4667 Y-24.2209
G1 X185.7040 Y-24.1419
G1 X185.8211 Y-24.1036
G1 X186.0657 Y-24.0243
G1 X186.4091 Y-23.9159
G1 X186.7771 Y-23.8031
G1 X187.0047 Y-23.7350
G1 X187.2503 Y-23.6629
G1 X187.4784 Y-23.5976
G1 X187.7243 Y-23.5285
G1 X187.7243 Y-23.5283
G1 X187.9534 Y-23.4653
G1 X188.1909 Y-23.4013
G1 X188.1909 Y-23.4015
G1 X188.4373 Y-23.3368
G1 X188.7964 Y-23.2451
G1 X188.9107 Y-23.2166
G1 X189.1515 Y-23.1577
G1 X189.3816 Y-23.1028
G1 X189.6290 Y-23.0452
G1 X189.8673 Y-22.9911
G1 X190.0977 Y-22.9403
G1 X190.3349 Y-22.8892
G1 X190.5828 Y-22.8376
G1 X190.8165 Y-22.7899
G1 X190.8165 Y-22.7902
G1 X190.9407 Y-22.7655
G1 X190.9407 Y-22.7653
G1 X191.1739 Y-22.7203
G1 X191.4141 Y-22.6751
G1 X191.6549 Y-22.6311
G1 X191.7794 Y-22.6090
G1 X192.0220 Y-22.5669
G1 X192.2617 Y-22.5268
G1 X192.5015 Y-22.4881
G1 X192.7332 Y-22.4521
G1 X192.9735 Y-22.4163
G1 X193.2231 Y-22.3804
G1 X193.4652 Y-22.3469
G1 X193.7024 Y-22.3157
G1 X193.9399 Y-22.2855
G1 X194.0573 Y-22.2712
G1 X194.3011 Y-22.2428
G1 X194.5386 Y-22.2161
G1 X194.9150 Y-22.1770
G1 X195.1553 Y-22.1536
G1 X195.3890 Y-22.1323
G1 X195.6405 Y-22.1107
G1 X195.8726 Y-22.0922
G1 X196.1147 Y-22.0744
G1 X196.3636 Y-22.0576
G1 X196.6107 Y-22.0421
G1 X196.8452 Y-22.0289
G1 X197.0883 Y-22.0165
G1 X197.3407 Y-22.0050
G1 X197.5724 Y-21.9959
G1 X197.9519 Y-21.9837
G1 X198.1840 Y-21.9779
G1 X198.4261 Y-21.9733
G1 X198.8063 Y-21.9687
G1 X199.0471 Y-21.9674
G1 X199.2851 Y-21.9677
G1 X199.5391 Y-21.9692
; Retract
G1 Z2.5400 F2540

; Path 2
; Rapid to initial position
G1 X127.7551 Y-19.2857 F2540
G1 Z0.0000
; plunge
G1 Z-3.1750 F127
; cut
G1 X127.7536 Y-19.2169 F1016
G1 X127.7473 Y-19.1272
G1 X127.7358 Y-19.0383
G1 X127.7193 Y-18.9499
G1 X127.6977 Y-18.8628
G1 X127.6713 Y-18.7769
G1 X127.6403 Y-18.6926
G1 X127.6043 Y-18.6103
G1 X127.5639 Y-18.5303
G1 X127.5189 Y-18.4526
G1 X127.4696 Y-18.3774
G1 X127.4163 Y-18.3053
G1 X127.3589 Y-18.2362
G1 X127.2974 Y-18.1707
G1 X127.2327 Y-18.1084
G1 X127.1643 Y-18.0503
G1 X127.0930 Y-17.9959
G1 X127.0185 Y-17.9456
G1 X126.9413 Y-17.8996
G1 X126.8618 Y-17.8580
G1 X126.7800 Y-17.8211
G1 X126.6962 Y-17.7889
G1 X126.6106 Y-17.7612
G1 X126.5237 Y-17.7386
G1 X126.4359 Y-17.7211
G1 X126.3470 Y-17.7084
G1 X126.2573 Y-17.7008
G1 X126.1676 Y-17.6982
G1 X8.6926 Y-17.6982
G1 X8.6238 Y-17.6997
G1 X8.5341 Y-17.7061
G1 X8.4452 Y-17.7175
G1 X8.3569 Y-17.7340
G1 X8.2697 Y-17.7556
G1 X8.1839 Y-17.7820
G1 X8.0996 Y-17.8130
G1 X8.0173 Y-17.8491
G1 X7.9372 Y-17.8895
G1 X7.8595 Y-17.9344
G1 X7.7843 Y-17.9837
G1 X7.7122 Y-18.0370
G1 X7.6431 Y-18.0945
G1 X7.5776 Y-18.1559
G1 X7.5154 Y-18.2207
G1 X7.4572 Y-18.2890
G1 X7.4028 Y-18.3604
G1 X7.3525 Y-18.4348
G1 X7.3066 Y-18.5120
G1 X7.2649 Y-18.5915
G1 X7.2281 Y-18.6733
G1 X7.1958 Y-18.7571
G1 X7.1681 Y-18.8427
G1 X7.1455 Y-18.9296
G1 X7.1280 Y-19.0175
G1 X7.1153 Y-19.1064
G1 X7.1077 Y-19.1960
G1 X7.1051 Y-19.2857
G1 X7.1051 Y-152.6357
G1 X7.1067 Y-152.7045
G1 X7.1130 Y-152.7942
G1 X7.1244 Y-152.8831
G1 X7.1410 Y-152.9715
G1 X7.1625 Y-153.0586
G1 X7.1890 Y-153.1445
G1 X7.2199 Y-153.2288
G1 X7.2560 Y-153.3111
G1 X7.2964 Y-153.3911
G1 X7.3414 Y-153.4688
G1 X7.3906 Y-153.5440
G1 X7.4440 Y-153.6162
G1 X7.5014 Y-153.6852
G1 X7.5629 Y-153.7508
G1 X7.6276 Y-153.8130
G1 X7.6959 Y-153.8712
G1 X7.7673 Y-153.9255
G1 X7.8417 Y-153.9758
G1 X7.9190 Y-154.0218
G1 X7.9985 Y-154.0634
G1 X8.0802 Y-154.1003
G1 X8.1641 Y-154.1325
G1 X8.2497 Y-154.1602
G1 X8.3365 Y-154.1828
G1 X8.4244 Y-154.2004
G1 X8.5133 Y-154.2131
G1 X8.6030 Y-154.2207
G1 X8.6926 Y-154.2232
G1 X126.1676 Y-154.2232
G1 X126.2365 Y-154.2217
G1 X126.3261 Y-154.2153
G1 X126.4150 Y-154.2039
G1 X126.5034 Y-154.1874
G1 X126.5906 Y-154.1658
G1 X126.6764 Y-154.1394
G1 X126.7607 Y-154.1084
G1 X126.8430 Y-154.0723
G1 X126.9230 Y-154.0319
G1 X127.0008 Y-153.9870
G1 X127.0759 Y-153.9377
G1 X127.1481 Y-153.8844
G1 X127.2172 Y-153.8270
G1 X127.2827 Y-153.7655
G1 X127.3449 Y-153.7007
G1 X127.4031 Y-153.6324
G1 X127.4575 Y-153.5610
G1 X127.5077 Y-153.4866
G1 X127.5537 Y-153.4094
G1 X127.5954 Y-153.3299
G1 X127.6322 Y-153.2481
G1 X127.6645 Y-153.1643
G1 X127.6921 Y-153.0787
G1 X127.7148 Y-152.9918
G1 X127.7323 Y-152.9039
G1 X127.7450 Y-152.8150
G1 X127.7526 Y-152.7254
G1 X127.7551 Y-152.6357
G1 X127.7551 Y-19.2857
; Retract
G1 Z2.5400 F2540

; Path 3
; Rapid to initial position
G1 X123.2573 Y-22.1960 F2540
G1 Z0.0000
; plunge
G1 Z-3.1750 F127
; cut
G1 X123.2573 Y-149.7254 F1016
G1 X11.6032 Y-149.7254
G1 X11.6032 Y-22.1960
G1 X123.2573 Y-22.1960
; Retract
G1 Z2.5400 F2540

; Path 4
; Rapid to initial position
G1 X289.8755 Y-50.8665 F2540
G1 Z0.0000
; plunge
G1 Z-3.1750 F127
; cut
G1 X282.2641 Y-83.4718 F1016
G1 X275.6997 Y-111.6924
G1 X269.6891 Y-137.6360
G1 X267.3975 Y-147.5908
G1 X266.4663 Y-151.6715
G1 X266.1770 Y-152.9527
G1 X265.8877 Y-154.2542
G1 X265.7742 Y-154.7922
G1 X265.7643 Y-154.8430
G1 X265.7505 Y-154.9204
G1 X265.7429 Y-154.9664
G1 X265.7325 Y-155.0558
G1 X265.7310 Y-155.0728
G1 X265.7262 Y-155.1422
G1 X265.7246 Y-155.2318
G1 X265.7282 Y-155.3218
G1 X265.7368 Y-155.4109
G1 X265.7505 Y-155.4998
G1 X265.7691 Y-155.5877
G1 X265.7927 Y-155.6743
G1 X265.8212 Y-155.7594
G1 X265.8544 Y-155.8430
G1 X265.8923 Y-155.9243
G1 X265.8943 Y-155.9283
G1 X265.9438 Y-156.0198
G1 X265.9913 Y-156.0960
G1 X266.0429 Y-156.1694
G1 X266.0988 Y-156.2397
G1 X266.1585 Y-156.3068
G1 X266.2220 Y-156.3703
G1 X266.2888 Y-156.4302
G1 X266.2921 Y-156.4330
G1 X266.3421 Y-156.4737
G1 X266.4145 Y-156.5267
G1 X266.4897 Y-156.5758
G1 X266.4943 Y-156.5786
G1 X266.5329 Y-156.6014
G1 X266.6121 Y-156.6438
G1 X266.6182 Y-156.6469
G1 X266.7351 Y-156.6995
G1 X266.8191 Y-156.7307
G1 X266.8356 Y-156.7363
G1 X266.9512 Y-156.7706
G1 X266.9731 Y-156.7762
G1 X267.0495 Y-156.7937
G1 X267.0769 Y-156.7993
G1 X267.1392 Y-156.8107
G1 X267.1907 Y-156.8191
G1 X267.2491 Y-156.8275
G1 X267.3368 Y-156.8384
G1 X267.4874 Y-156.8536
G1 X267.6070 Y-156.8638
G1 X267.8115 Y-156.8783
G1 X268.1458 Y-156.8971
G1 X268.5334 Y-156.9151
G1 X268.9769 Y-156.9321
G1 X269.3988 Y-156.9463
G1 X270.3548 Y-156.9728
G1 X271.0782 Y-156.9893
G1 X272.8163 Y-157.0223
G1 X275.3223 Y-157.0581
G1 X278.6093 Y-157.0932
G1 X282.1148 Y-157.1203
G1 X285.5618 Y-157.1399
G1 X289.1899 Y-157.1544
G1 X293.1297 Y-157.1643
G1 X297.8887 Y-157.1688
G1 X301.3845 Y-157.1673
G1 X306.1137 Y-157.1587
G1 X309.4807 Y-157.1475
G1 X313.7233 Y-157.1267
G1 X317.3705 Y-157.1013
G1 X320.2882 Y-157.0744
G1 X323.6511 Y-157.0327
G1 X324.6890 Y-157.0162
G1 X326.1530 Y-156.9893
G1 X327.1721 Y-156.9662
G1 X327.9132 Y-156.9466
G1 X328.8274 Y-156.9164
G1 X329.2462 Y-156.8991
G1 X329.4626 Y-156.8887
G1 X329.8294 Y-156.8676
G1 X330.0669 Y-156.8501
G1 X330.2102 Y-156.8369
G1 X330.3128 Y-156.8254
G1 X330.3892 Y-156.8155
G1 X330.4819 Y-156.8011
G1 X330.5442 Y-156.7896
G1 X330.5716 Y-156.7840
G1 X330.6481 Y-156.7665
G1 X330.6699 Y-156.7609
G1 X330.7855 Y-156.7266
G1 X330.8020 Y-156.7210
G1 X330.8718 Y-156.6956
G1 X330.9544 Y-156.6606
G1 X330.9605 Y-156.6578
G1 X331.0250 Y-156.6263
G1 X331.1035 Y-156.5831
G1 X331.1797 Y-156.5354
G1 X331.1843 Y-156.5323
G1 X331.2589 Y-156.4795
G1 X331.3290 Y-156.4234
G1 X331.3323 Y-156.4206
G1 X331.4210 Y-156.3398
G1 X331.4830 Y-156.2750
G1 X331.5414 Y-156.2067
G1 X331.5960 Y-156.1353
G1 X331.6463 Y-156.0609
G1 X331.6481 Y-156.0581
G1 X331.7062 Y-155.9590
G1 X331.7466 Y-155.8788
G1 X331.7824 Y-155.7962
G1 X331.8134 Y-155.7122
G1 X331.8396 Y-155.6263
G1 X331.8609 Y-155.5389
G1 X331.8772 Y-155.4508
G1 X331.8886 Y-155.3616
G1 X331.8949 Y-155.2720
G1 X331.8952 Y-155.2659
G1 X331.8960 Y-155.1625
G1 X331.8914 Y-155.0728
G1 X331.8817 Y-154.9837
G1 X331.8761 Y-154.9430
G1 X331.8629 Y-154.8623
G1 X331.8337 Y-154.7089
G1 X331.7243 Y-154.1912
G1 X331.3742 Y-152.6116
G1 X330.3694 Y-148.1856
G1 X329.3582 Y-143.7759
G1 X324.5444 Y-122.9413
G1 X319.9676 Y-103.2332
G1 X313.0461 Y-73.5287
G1 X307.9260 Y-51.6331
G1 X304.2364 Y-35.9255
G1 X302.2722 Y-27.6207
G1 X301.4337 Y-24.1163
G1 X301.1010 Y-22.7482
G1 X300.9237 Y-22.0416
G1 X300.8561 Y-21.7889
G1 X300.8396 Y-21.7317
G1 X300.8244 Y-21.6825
G1 X300.8013 Y-21.6136
G1 X300.7685 Y-21.5301
G1 X300.7634 Y-21.5181
G1 X300.7192 Y-21.4231
G1 X300.6766 Y-21.3441
G1 X300.6293 Y-21.2679
G1 X300.5780 Y-21.1943
G1 X300.5224 Y-21.1237
G1 X300.4629 Y-21.0563
G1 X300.3664 Y-20.9530
G1 X300.2940 Y-20.8801
G1 X300.2270 Y-20.8206
G1 X300.1566 Y-20.7648
G1 X300.0832 Y-20.7129
G1 X300.0070 Y-20.6657
G1 X299.9283 Y-20.6225
G1 X299.7980 Y-20.5560
G1 X299.7340 Y-20.5252
G1 X299.6514 Y-20.4902
G1 X299.5668 Y-20.4600
G1 X299.4807 Y-20.4348
G1 X299.3931 Y-20.4142
G1 X299.2412 Y-20.3832
G1 X299.1673 Y-20.3700
G1 X299.0784 Y-20.3589
G1 X298.9887 Y-20.3525
G1 X298.8991 Y-20.3515
G1 X298.7378 Y-20.3540
G1 X298.6837 Y-20.3558
G1 X298.5940 Y-20.3627
G1 X298.5051 Y-20.3749
G1 X298.4170 Y-20.3919
G1 X298.2587 Y-20.4272
G1 X298.1930 Y-20.4434
G1 X298.1068 Y-20.4691
G1 X298.0225 Y-20.4996
G1 X297.9397 Y-20.5349
G1 X297.7965 Y-20.6009
G1 X297.7500 Y-20.6233
G1 X297.6707 Y-20.6659
G1 X297.5943 Y-20.7127
G1 X297.5204 Y-20.7640
G1 X297.4497 Y-20.8191
G1 X297.3339 Y-20.9149
G1 X297.2770 Y-20.9641
G1 X297.2123 Y-21.0264
G1 X297.1513 Y-21.0924
G1 X297.0939 Y-21.1615
G1 X297.0408 Y-21.2339
G1 X296.9918 Y-21.3091
G1 X296.9158 Y-21.4330
G1 X296.8785 Y-21.4970
G1 X296.8374 Y-21.5770
G1 X296.8010 Y-21.6591
G1 X296.7693 Y-21.7432
G1 X296.7647 Y-21.7564
G1 X296.7391 Y-21.8369
G1 X296.7162 Y-21.9164
G1 X296.6309 Y-22.2443
G1 X296.4845 Y-22.8343
G1 X296.2097 Y-23.9690
G1 X295.5249 Y-26.8366
G1 X293.7843 Y-34.2044
G1 X289.8755 Y-50.8665
; Retract
G1 Z2.5400 F2540

; Path 5
; Rapid to initial position
G1 X295.8818 Y-45.0769 F2540
G1 Z0.0000
; plunge
G1 Z-3.1750 F127
; cut
G1 X297.0827 Y-40.0200 F1016
G1 X298.1533 Y-35.5625
G1 X298.7172 Y-33.2519
G1 X298.8541 Y-32.7030
G1 X312.4637 Y-90.7519
G1 X326.5947 Y-151.1981
G1 X326.9277 Y-152.6357
G1 X270.6992 Y-152.6357
G1 X290.6994 Y-67.1195
G1 X295.8818 Y-45.0769
; Retract
G1 Z2.5400 F2540
M2
